{"type":"FeatureCollection","features":[{"type":"Feature","properties":{"id":1,"nr":"I","nazwa":"Stare Miasto"},"geometry":{"type":"Polygon","coordinates":[[[19.92377,50.06255],[19.92455,50.06086],[19.92653,50.05767],[19.92746,50.05582],[19.9281,50.05532],[19.92793,50.05518],[19.92805,50.055],[19.9279,50.05492],[19.92849,50.05417],[19.92916,50.05436],[19.93015,50.05445],[19.93138,50.0542],[19.93165,50.05396],[19.93313,50.05136],[19.93498,50.04869],[19.93707,50.04637],[19.9378,50.04578],[19.93875,50.04531],[19.93966,50.04503],[19.94136,50.04484],[19.94276,50.04488],[19.94414,50.04513],[19.94819,50.04673],[19.94954,50.04736],[19.95466,50.05011],[19.95382,50.05086],[19.95344,50.05063],[19.95334,50.05065],[19.9496,50.05377],[19.94893,50.05407],[19.94905,50.05441],[19.94834,50.05547],[19.94785,50.05553],[19.94799,50.05609],[19.94744,50.05762],[19.94747,50.05793],[19.9474,50.05795],[19.94734,50.05845],[19.94752,50.05856],[19.94753,50.05877],[19.94748,50.05978],[19.94729,50.05978],[19.9473,50.05998],[19.94741,50.05997],[19.94748,50.06068],[19.94758,50.06072],[19.9476,50.06096],[19.94744,50.06115],[19.94764,50.06128],[19.94748,50.06158],[19.94744,50.06262],[19.94752,50.06262],[19.94733,50.06399],[19.94746,50.06406],[19.94739,50.06484],[19.94926,50.06501],[19.94922,50.06532],[19.94929,50.06555],[19.95007,50.06726],[19.94997,50.06815],[19.95209,50.06778],[19.95523,50.07202],[19.95517,50.07204],[19.95623,50.07342],[19.95634,50.07338],[19.95716,50.07445],[19.9571,50.07447],[19.95793,50.0757],[19.96017,50.07863],[19.9595,50.07871],[19.95911,50.07863],[19.95838,50.07876],[19.95792,50.07876],[19.95755,50.07898],[19.95696,50.07978],[19.95665,50.07986],[19.95048,50.08074],[19.95044,50.08069],[19.95056,50.08065],[19.95051,50.08059],[19.94736,50.08098],[19.94613,50.07914],[19.94541,50.07753],[19.94508,50.07743],[19.94516,50.07733],[19.94497,50.07726],[19.94476,50.07731],[19.94105,50.07605],[19.94116,50.07596],[19.94102,50.07558],[19.94043,50.07525],[19.94031,50.0753],[19.93875,50.07411],[19.93863,50.07381],[19.93811,50.07348],[19.937,50.07349],[19.93493,50.0733],[19.9347,50.07319],[19.93443,50.07334],[19.93293,50.07296],[19.93178,50.07246],[19.92771,50.07028],[19.9266,50.0688],[19.92539,50.06688],[19.92377,50.06255]]]}},{"type":"Feature","properties":{"id":2,"nr":"II","nazwa":"Grzegórzki"},"geometry":{"type":"Polygon","coordinates":[[[19.94729,50.05978],[19.94748,50.05978],[19.94752,50.05856],[19.94734,50.05845],[19.9474,50.05795],[19.94747,50.05793],[19.94744,50.05762],[19.94799,50.05609],[19.94785,50.05553],[19.94834,50.05547],[19.94905,50.05441],[19.94893,50.05407],[19.9496,50.05377],[19.95334,50.05065],[19.95344,50.05063],[19.95382,50.05086],[19.95466,50.05011],[19.95637,50.05103],[19.95873,50.0519],[19.96009,50.05236],[19.96279,50.05281],[19.96568,50.05285],[19.96721,50.05273],[19.97062,50.05222],[19.97234,50.05231],[19.97371,50.0526],[19.97619,50.05337],[19.97702,50.05352],[19.97895,50.05426],[19.9802,50.05513],[19.98109,50.05587],[19.98233,50.05759],[19.98302,50.05823],[19.98423,50.0591],[19.98527,50.05962],[19.98685,50.05986],[19.98648,50.06038],[19.9858,50.06075],[19.98548,50.0611],[19.98483,50.06154],[19.98421,50.06179],[19.98277,50.06213],[19.98215,50.06245],[19.98454,50.06369],[19.98864,50.06447],[19.98874,50.06482],[19.98845,50.06711],[19.98831,50.06724],[19.98814,50.06723],[19.98811,50.06751],[19.98824,50.06751],[19.98826,50.06784],[19.98793,50.06837],[19.98756,50.0687],[19.98691,50.06916],[19.98417,50.07056],[19.98337,50.06984],[19.98288,50.07006],[19.98256,50.06972],[19.98239,50.06941],[19.98245,50.06931],[19.98234,50.06919],[19.98226,50.06921],[19.98177,50.0684],[19.98101,50.06878],[19.97979,50.06832],[19.97973,50.06842],[19.97672,50.06729],[19.97613,50.068],[19.97454,50.07079],[19.974,50.07154],[19.97316,50.07249],[19.9719,50.07364],[19.972,50.07371],[19.96989,50.07517],[19.96996,50.07524],[19.9698,50.07524],[19.96869,50.07594],[19.96874,50.07598],[19.96864,50.07604],[19.9687,50.0761],[19.96845,50.07642],[19.96782,50.07668],[19.96799,50.07687],[19.96716,50.0772],[19.96701,50.07703],[19.96512,50.07772],[19.96481,50.07798],[19.96418,50.07822],[19.9593,50.07964],[19.95723,50.07984],[19.95718,50.07974],[19.95696,50.07978],[19.95755,50.07898],[19.95792,50.07876],[19.95838,50.07876],[19.95911,50.07863],[19.9595,50.07871],[19.96017,50.07863],[19.95793,50.0757],[19.9571,50.07447],[19.95716,50.07445],[19.95634,50.07338],[19.95623,50.07342],[19.95517,50.07204],[19.95523,50.07202],[19.95209,50.06778],[19.94997,50.06815],[19.95007,50.06726],[19.94929,50.06555],[19.94922,50.06532],[19.94926,50.06501],[19.94739,50.06484],[19.94746,50.06406],[19.94733,50.06399],[19.94752,50.06262],[19.94744,50.06262],[19.94748,50.06158],[19.94764,50.06128],[19.94744,50.06115],[19.9476,50.06096],[19.94758,50.06072],[19.94748,50.06068],[19.94741,50.05997],[19.9473,50.05998],[19.94729,50.05978]]]}},{"type":"Feature","properties":{"id":3,"nr":"III","nazwa":"Prądnik Czerwony"},"geometry":{"type":"Polygon","coordinates":[[[19.94735,50.081],[19.95051,50.08059],[19.95056,50.08065],[19.95044,50.08069],[19.95048,50.08074],[19.95713,50.07974],[19.95723,50.07984],[19.9593,50.07964],[19.96418,50.07822],[19.96481,50.07798],[19.96512,50.07772],[19.96701,50.07703],[19.96716,50.0772],[19.96799,50.07687],[19.96782,50.07668],[19.96845,50.07642],[19.9687,50.0761],[19.96864,50.07604],[19.96874,50.07598],[19.96869,50.07594],[19.9698,50.07524],[19.96996,50.07524],[19.96989,50.07517],[19.972,50.07371],[19.9719,50.07364],[19.97316,50.07249],[19.974,50.07154],[19.97454,50.07079],[19.97613,50.068],[19.97672,50.06729],[19.97973,50.06842],[19.97979,50.06832],[19.98101,50.06878],[19.98177,50.0684],[19.98226,50.06921],[19.98234,50.06919],[19.98245,50.06931],[19.98239,50.06941],[19.98256,50.06972],[19.98288,50.07006],[19.98337,50.06984],[19.98499,50.07134],[19.98528,50.07157],[19.98545,50.07155],[19.98583,50.07186],[19.98573,50.07203],[19.98545,50.07217],[19.98587,50.07258],[19.98598,50.07253],[19.98626,50.07267],[19.9871,50.07254],[19.98742,50.07321],[19.98851,50.07327],[19.98813,50.0756],[19.98861,50.07593],[19.98906,50.07607],[19.98934,50.07658],[19.98863,50.07715],[19.98724,50.07967],[19.98764,50.0801],[19.98895,50.08035],[19.98893,50.08042],[19.98939,50.08052],[19.98827,50.08259],[19.98795,50.08275],[19.98763,50.08331],[19.98718,50.0834],[19.98655,50.08325],[19.98649,50.08317],[19.98618,50.08372],[19.98678,50.08371],[19.9867,50.08409],[19.98642,50.08432],[19.98558,50.08452],[19.98512,50.08477],[19.98453,50.08534],[19.98395,50.08554],[19.98234,50.08554],[19.98246,50.08627],[19.98145,50.08614],[19.98144,50.08621],[19.97933,50.08607],[19.97851,50.08793],[19.9806,50.0882],[19.98013,50.08975],[19.98285,50.09006],[19.98297,50.09028],[19.98363,50.09042],[19.98785,50.09095],[19.98783,50.09106],[19.9879,50.09107],[19.9875,50.0944],[19.98782,50.09487],[19.98808,50.09491],[19.98803,50.09513],[19.98783,50.09512],[19.9877,50.09562],[19.98806,50.0979],[19.98776,50.0979],[19.98828,50.09801],[19.98864,50.09824],[19.98934,50.09844],[19.99051,50.09897],[19.99052,50.09905],[19.99222,50.09943],[19.99219,50.09948],[19.99248,50.09956],[19.99204,50.10027],[19.9907,50.09994],[19.99043,50.10041],[19.9907,50.1006],[19.99075,50.10087],[19.99064,50.10111],[19.99065,50.10142],[19.99098,50.10179],[19.99101,50.10195],[19.99083,50.10251],[19.99106,50.10288],[19.99105,50.10345],[19.99096,50.10358],[19.99106,50.10385],[19.9909,50.10399],[19.98667,50.10478],[19.98633,50.10468],[19.98621,50.10456],[19.98605,50.1046],[19.98524,50.10435],[19.97787,50.10155],[19.97628,50.10068],[19.97149,50.09773],[19.97041,50.09721],[19.96878,50.09666],[19.96675,50.09635],[19.96118,50.09345],[19.96079,50.09341],[19.95933,50.09255],[19.95333,50.08864],[19.95211,50.0877],[19.95153,50.08703],[19.95071,50.08582],[19.95087,50.08578],[19.95044,50.08528],[19.9501,50.08466],[19.94972,50.08422],[19.94901,50.08306],[19.94886,50.08264],[19.94851,50.08272],[19.94735,50.081]]]}},{"type":"Feature","properties":{"id":4,"nr":"IV","nazwa":"Prądnik Biały"},"geometry":{"type":"Polygon","coordinates":[[[19.86183,50.10595],[19.86244,50.10473],[19.86276,50.10432],[19.86357,50.10262],[19.86415,50.10187],[19.86434,50.10174],[19.86445,50.10068],[19.86471,50.10023],[19.86532,50.09955],[19.86543,50.0995],[19.86661,50.1],[19.867,50.09968],[19.86737,50.09918],[19.86769,50.09943],[19.86894,50.09786],[19.87365,50.09557],[19.87728,50.09309],[19.87883,50.09223],[19.88035,50.09159],[19.88031,50.09154],[19.8812,50.09123],[19.88412,50.08989],[19.89007,50.0878],[19.89075,50.08771],[19.89071,50.08763],[19.89087,50.0876],[19.89227,50.08751],[19.89246,50.08726],[19.89168,50.08684],[19.89141,50.08653],[19.89146,50.08486],[19.89134,50.08343],[19.89476,50.08361],[19.89635,50.08381],[19.89988,50.08346],[19.9044,50.08262],[19.90611,50.08261],[19.91605,50.08222],[19.92116,50.08226],[19.92554,50.08251],[19.9301,50.08265],[19.93415,50.08256],[19.94735,50.081],[19.94851,50.08272],[19.94886,50.08264],[19.94901,50.08306],[19.94972,50.08422],[19.9501,50.08466],[19.95044,50.08528],[19.95087,50.08578],[19.95071,50.08582],[19.95153,50.08703],[19.95211,50.0877],[19.95333,50.08864],[19.95933,50.09255],[19.96079,50.09341],[19.96118,50.09345],[19.96675,50.09635],[19.96878,50.09666],[19.96995,50.09703],[19.97104,50.09751],[19.97628,50.10068],[19.97787,50.10155],[19.98524,50.10435],[19.98605,50.1046],[19.98621,50.10456],[19.98633,50.10468],[19.98667,50.10478],[19.9828,50.10543],[19.98136,50.10557],[19.98072,50.10496],[19.97997,50.10544],[19.979,50.10582],[19.9775,50.10587],[19.97562,50.1064],[19.97214,50.10683],[19.97026,50.10735],[19.96936,50.10776],[19.96824,50.10852],[19.96699,50.10895],[19.96583,50.10921],[19.9639,50.10988],[19.96328,50.11021],[19.96253,50.10957],[19.96138,50.1089],[19.96042,50.10848],[19.96,50.10838],[19.9581,50.10832],[19.95749,50.10904],[19.95731,50.10939],[19.95744,50.11059],[19.9559,50.11051],[19.95529,50.11122],[19.95368,50.11248],[19.9512,50.11407],[19.94876,50.11654],[19.94835,50.11716],[19.94776,50.11859],[19.94733,50.11934],[19.94319,50.11882],[19.94131,50.11904],[19.94017,50.11893],[19.93982,50.11719],[19.93997,50.11624],[19.9367,50.11583],[19.93526,50.11553],[19.93543,50.11515],[19.93262,50.11448],[19.93105,50.11424],[19.92941,50.11412],[19.92774,50.11351],[19.92741,50.11416],[19.92729,50.11462],[19.92557,50.11429],[19.92494,50.11407],[19.92574,50.1124],[19.92542,50.1118],[19.92444,50.1113],[19.92477,50.11089],[19.92501,50.1104],[19.92536,50.11012],[19.92603,50.10811],[19.92624,50.10809],[19.92677,50.10748],[19.92721,50.10728],[19.92763,50.10737],[19.928,50.10786],[19.92936,50.10771],[19.92944,50.10794],[19.92935,50.10813],[19.9271,50.11024],[19.9276,50.11039],[19.92809,50.1104],[19.92842,50.11027],[19.93007,50.10936],[19.93106,50.10862],[19.93131,50.1078],[19.93122,50.10749],[19.93064,50.10708],[19.93045,50.10683],[19.92937,50.10665],[19.93012,50.10554],[19.93079,50.10481],[19.92887,50.10373],[19.9283,50.10412],[19.92814,50.10432],[19.92815,50.10492],[19.92769,50.10508],[19.9273,50.10494],[19.92673,50.1047],[19.92643,50.10438],[19.92639,50.10449],[19.92622,50.10444],[19.92353,50.10341],[19.92087,50.10226],[19.92101,50.10214],[19.91878,50.10134],[19.91893,50.10103],[19.91889,50.10018],[19.91511,50.10093],[19.9147,50.10328],[19.91406,50.10561],[19.91294,50.10808],[19.91227,50.10995],[19.91162,50.11107],[19.91149,50.11159],[19.91079,50.11265],[19.91005,50.11456],[19.90979,50.11485],[19.90947,50.11556],[19.9091,50.11685],[19.90852,50.11813],[19.90711,50.11944],[19.90595,50.1209],[19.90469,50.12212],[19.90441,50.1222],[19.90303,50.12297],[19.90218,50.12357],[19.90149,50.12441],[19.90141,50.12439],[19.9011,50.12511],[19.90087,50.12506],[19.9005,50.12551],[19.89885,50.12501],[19.89838,50.12501],[19.89829,50.12534],[19.89937,50.12542],[19.89959,50.1258],[19.89833,50.12568],[19.89832,50.12613],[19.89251,50.12608],[19.89239,50.12514],[19.89256,50.12434],[19.89153,50.12432],[19.89157,50.1241],[19.89047,50.12401],[19.89055,50.12363],[19.89121,50.12328],[19.89134,50.12308],[19.89141,50.12251],[19.89018,50.12272],[19.88943,50.12275],[19.88662,50.12225],[19.88448,50.12216],[19.88272,50.12162],[19.88187,50.12124],[19.8804,50.12013],[19.87899,50.11844],[19.87886,50.11819],[19.87864,50.11716],[19.8777,50.11507],[19.8768,50.11351],[19.87673,50.11318],[19.87681,50.11301],[19.87664,50.11253],[19.87569,50.11141],[19.87527,50.11104],[19.87291,50.10989],[19.86736,50.10745],[19.86332,50.10733],[19.86183,50.10595]]]}},{"type":"Feature","properties":{"id":5,"nr":"V","nazwa":"Krowodrza"},"geometry":{"type":"Polygon","coordinates":[[[19.88724,50.06874],[19.88737,50.0685],[19.88795,50.06802],[19.88808,50.06757],[19.8897,50.0671],[19.89109,50.06648],[19.89216,50.06629],[19.89224,50.06645],[19.89426,50.06571],[19.89612,50.0652],[19.90247,50.06319],[19.90238,50.06298],[19.90271,50.0629],[19.90258,50.06267],[19.90266,50.0626],[19.90422,50.06236],[19.90428,50.06254],[19.92399,50.05942],[19.92459,50.05946],[19.92468,50.05916],[19.92551,50.05922],[19.92448,50.06099],[19.92387,50.0622],[19.92377,50.06261],[19.92539,50.06688],[19.92753,50.07012],[19.92971,50.07139],[19.93178,50.07246],[19.93293,50.07296],[19.93443,50.07334],[19.9347,50.07319],[19.93493,50.0733],[19.937,50.07349],[19.93811,50.07348],[19.93863,50.07381],[19.93875,50.07411],[19.94031,50.0753],[19.94043,50.07525],[19.94102,50.07558],[19.94116,50.07596],[19.94105,50.07605],[19.94476,50.07731],[19.94497,50.07726],[19.94516,50.07733],[19.94508,50.07743],[19.94541,50.07753],[19.94613,50.07914],[19.94736,50.08098],[19.93415,50.08256],[19.93253,50.08263],[19.9301,50.08265],[19.92554,50.08251],[19.92134,50.08226],[19.91832,50.0822],[19.90934,50.08244],[19.90817,50.08024],[19.90619,50.0759],[19.90583,50.0758],[19.90472,50.07248],[19.90469,50.07207],[19.90397,50.07027],[19.89796,50.07111],[19.8955,50.07154],[19.89036,50.0721],[19.88936,50.07233],[19.8891,50.07187],[19.88808,50.07227],[19.88793,50.07176],[19.88793,50.0715],[19.88803,50.07129],[19.88752,50.07096],[19.88769,50.07071],[19.88742,50.07044],[19.88737,50.06965],[19.88725,50.06943],[19.88724,50.06874]]]}},{"type":"Feature","properties":{"id":6,"nr":"VI","nazwa":"Bronowice"},"geometry":{"type":"Polygon","coordinates":[[[19.83453,50.0885],[19.83571,50.08833],[19.83671,50.088],[19.83729,50.08762],[19.83812,50.0869],[19.83829,50.08663],[19.83827,50.08608],[19.83764,50.08518],[19.83761,50.08489],[19.83785,50.08442],[19.83885,50.08369],[19.83927,50.08287],[19.83985,50.08247],[19.84112,50.08187],[19.84184,50.08091],[19.84224,50.08055],[19.84489,50.07865],[19.84581,50.07818],[19.84684,50.07791],[19.84786,50.07782],[19.85258,50.07788],[19.85319,50.07778],[19.85411,50.0775],[19.85572,50.07676],[19.85631,50.07669],[19.8577,50.07675],[19.85842,50.07663],[19.8588,50.07649],[19.8627,50.07388],[19.86339,50.07356],[19.86601,50.07319],[19.86736,50.07233],[19.86794,50.07209],[19.87199,50.07197],[19.87345,50.07167],[19.87548,50.07071],[19.87908,50.06937],[19.88135,50.06808],[19.88291,50.06762],[19.88401,50.06748],[19.88665,50.06747],[19.88765,50.06728],[19.88806,50.06748],[19.88795,50.06802],[19.88737,50.0685],[19.88724,50.06874],[19.88725,50.06943],[19.88737,50.06965],[19.88742,50.07044],[19.88769,50.07071],[19.88752,50.07096],[19.88803,50.07129],[19.88793,50.0715],[19.88793,50.07176],[19.88808,50.07227],[19.8891,50.07187],[19.88936,50.07233],[19.89036,50.0721],[19.8955,50.07154],[19.89796,50.07111],[19.90397,50.07027],[19.90469,50.07207],[19.90472,50.07248],[19.90583,50.0758],[19.90619,50.0759],[19.90817,50.08024],[19.90934,50.08244],[19.90611,50.08261],[19.9044,50.08262],[19.89988,50.08346],[19.89635,50.08381],[19.89476,50.08361],[19.89134,50.08343],[19.89146,50.08486],[19.89141,50.08653],[19.89168,50.08684],[19.89246,50.08726],[19.89227,50.08751],[19.89071,50.08763],[19.89075,50.08771],[19.89007,50.0878],[19.8877,50.08861],[19.8838,50.09002],[19.87883,50.09223],[19.8768,50.09338],[19.87572,50.09411],[19.87577,50.09414],[19.87526,50.09452],[19.87418,50.09514],[19.87423,50.09519],[19.87365,50.09557],[19.86894,50.09786],[19.86769,50.09943],[19.86749,50.09931],[19.86605,50.09773],[19.86158,50.09266],[19.86101,50.09289],[19.85862,50.0935],[19.85602,50.0936],[19.85187,50.09443],[19.85083,50.09422],[19.84976,50.09372],[19.84908,50.09352],[19.84687,50.09302],[19.8465,50.0928],[19.84499,50.09222],[19.84374,50.09217],[19.8433,50.09226],[19.8431,50.09238],[19.84259,50.09223],[19.84186,50.09182],[19.84094,50.09179],[19.84065,50.09158],[19.84008,50.09144],[19.83997,50.09129],[19.83954,50.09109],[19.83941,50.09084],[19.83904,50.09066],[19.8385,50.09066],[19.83818,50.09035],[19.83776,50.09046],[19.83647,50.08933],[19.83557,50.08959],[19.83453,50.0885]]]}},{"type":"Feature","properties":{"id":7,"nr":"VII","nazwa":"Zwierzyniec"},"geometry":{"type":"Polygon","coordinates":[[[19.8017,50.06921],[19.80301,50.06728],[19.80461,50.06455],[19.80453,50.0621],[19.80929,50.061],[19.80984,50.05978],[19.81042,50.05942],[19.81046,50.0592],[19.8109,50.05916],[19.81107,50.05849],[19.8112,50.05846],[19.8121,50.05868],[19.8124,50.05858],[19.81288,50.0588],[19.81404,50.05902],[19.81452,50.05902],[19.81462,50.0592],[19.81587,50.05935],[19.8165,50.05927],[19.8172,50.05907],[19.81761,50.05885],[19.8195,50.05839],[19.81984,50.05822],[19.822,50.0582],[19.82126,50.05764],[19.82078,50.05685],[19.82066,50.05636],[19.82078,50.05596],[19.82072,50.0558],[19.82075,50.05532],[19.82067,50.05506],[19.82016,50.05426],[19.8201,50.05389],[19.82016,50.05337],[19.81967,50.05241],[19.81966,50.0519],[19.81949,50.05146],[19.81918,50.05116],[19.81889,50.05066],[19.81831,50.05028],[19.81774,50.0491],[19.81734,50.04885],[19.817,50.04839],[19.81368,50.04525],[19.81277,50.04463],[19.8121,50.04388],[19.81129,50.04332],[19.8112,50.04305],[19.811,50.04292],[19.8107,50.04178],[19.81073,50.0411],[19.81064,50.04065],[19.81207,50.04015],[19.81246,50.03983],[19.81283,50.03924],[19.81281,50.0383],[19.81259,50.03768],[19.81306,50.03668],[19.81343,50.03541],[19.81448,50.03491],[19.81542,50.03388],[19.8161,50.0335],[19.81681,50.03328],[19.81866,50.03234],[19.82107,50.03189],[19.82203,50.03187],[19.82451,50.03207],[19.82623,50.03274],[19.82625,50.03306],[19.82643,50.0336],[19.82698,50.03449],[19.82778,50.035],[19.8286,50.03533],[19.83127,50.03585],[19.83407,50.03607],[19.83544,50.03626],[19.83673,50.03657],[19.83795,50.03701],[19.83919,50.03748],[19.84136,50.03856],[19.84336,50.03994],[19.84439,50.04055],[19.84526,50.04127],[19.84737,50.04245],[19.84889,50.043],[19.85163,50.04338],[19.86109,50.0434],[19.86591,50.04392],[19.86699,50.04398],[19.86905,50.04392],[19.87087,50.04365],[19.87249,50.04319],[19.87809,50.03938],[19.87952,50.03871],[19.88201,50.03832],[19.88448,50.03811],[19.88735,50.0381],[19.89131,50.0384],[19.89594,50.03858],[19.89825,50.03931],[19.89919,50.03985],[19.90085,50.04122],[19.90274,50.04374],[19.90467,50.04595],[19.90547,50.0472],[19.90606,50.04836],[19.90638,50.04875],[19.90727,50.04974],[19.90821,50.05037],[19.90898,50.05076],[19.90997,50.05108],[19.91106,50.05121],[19.9158,50.05121],[19.92184,50.05196],[19.92473,50.05263],[19.92612,50.05313],[19.92849,50.05417],[19.9279,50.05492],[19.92805,50.055],[19.92793,50.05518],[19.9281,50.05532],[19.92746,50.05582],[19.92653,50.05767],[19.92551,50.05922],[19.92468,50.05916],[19.92459,50.05946],[19.92399,50.05942],[19.90428,50.06254],[19.90422,50.06236],[19.90266,50.0626],[19.90258,50.06267],[19.90271,50.0629],[19.90238,50.06298],[19.90247,50.06319],[19.89612,50.0652],[19.89426,50.06571],[19.89224,50.06645],[19.89216,50.06629],[19.89109,50.06648],[19.8897,50.0671],[19.88813,50.06757],[19.88765,50.06728],[19.88665,50.06747],[19.88357,50.06752],[19.88201,50.06784],[19.8807,50.0684],[19.87908,50.06937],[19.87548,50.07071],[19.87377,50.07155],[19.87307,50.07178],[19.87199,50.07197],[19.86794,50.07209],[19.86736,50.07233],[19.86601,50.07319],[19.86523,50.07335],[19.86373,50.07348],[19.863,50.07373],[19.8588,50.07649],[19.85842,50.07663],[19.8577,50.07675],[19.85631,50.07669],[19.85572,50.07676],[19.85411,50.0775],[19.85319,50.07778],[19.85258,50.07788],[19.84786,50.07782],[19.84684,50.07791],[19.84581,50.07818],[19.84489,50.07865],[19.84224,50.08055],[19.84184,50.08091],[19.84112,50.08187],[19.83985,50.08247],[19.83927,50.08287],[19.83885,50.08369],[19.83785,50.08442],[19.83761,50.08489],[19.83764,50.08518],[19.83827,50.08608],[19.83829,50.08663],[19.83812,50.0869],[19.83729,50.08762],[19.83671,50.088],[19.83511,50.08844],[19.83453,50.0885],[19.83437,50.08831],[19.83195,50.08854],[19.83126,50.08846],[19.82983,50.08811],[19.82987,50.0879],[19.82928,50.08769],[19.82834,50.08634],[19.82801,50.08601],[19.828,50.0858],[19.82536,50.08413],[19.82369,50.08342],[19.82342,50.08311],[19.82347,50.08273],[19.82328,50.08259],[19.82176,50.08234],[19.82095,50.08206],[19.81935,50.08173],[19.81893,50.08151],[19.81847,50.08103],[19.81777,50.08098],[19.81704,50.08076],[19.81615,50.0808],[19.81456,50.08044],[19.81342,50.08028],[19.81124,50.08016],[19.80952,50.07941],[19.80829,50.07839],[19.80844,50.07761],[19.80833,50.07703],[19.80712,50.07432],[19.80596,50.07208],[19.80541,50.07157],[19.8017,50.06921]]]}},{"type":"Feature","properties":{"id":8,"nr":"VIII","nazwa":"Dębniki"},"geometry":{"type":"Polygon","coordinates":[[[19.79224,50.01181],[19.79238,50.01104],[19.79272,50.01022],[19.79434,50.00721],[19.79469,50.00605],[19.79485,50.00486],[19.79522,50.00325],[19.79518,50.00277],[19.79545,50.00212],[19.79663,49.99737],[19.79606,49.99581],[19.79567,49.99528],[19.79617,49.99513],[19.79623,49.99488],[19.79645,49.99456],[19.79785,49.99506],[19.79832,49.99532],[19.79822,49.99537],[19.79879,49.99597],[19.79912,49.99594],[19.79933,49.9958],[19.80001,49.99578],[19.80078,49.99548],[19.80081,49.99543],[19.80066,49.99532],[19.80095,49.99506],[19.80094,49.99496],[19.80061,49.99481],[19.80074,49.99466],[19.80073,49.9944],[19.80093,49.9942],[19.80089,49.99399],[19.80137,49.99391],[19.80171,49.99343],[19.80223,49.99337],[19.80233,49.99342],[19.80258,49.99396],[19.80277,49.99412],[19.80386,49.99433],[19.80397,49.99419],[19.80394,49.99406],[19.80351,49.99352],[19.80349,49.99317],[19.80361,49.99296],[19.80599,49.99303],[19.80742,49.99258],[19.80953,49.99217],[19.80956,49.99292],[19.80983,49.99312],[19.81011,49.99297],[19.81035,49.99296],[19.81048,49.99307],[19.81058,49.99337],[19.81123,49.99371],[19.81137,49.99403],[19.81104,49.99426],[19.81101,49.99443],[19.81161,49.99436],[19.81217,49.99469],[19.81266,49.99478],[19.81306,49.99474],[19.81303,49.99454],[19.81402,49.99431],[19.81475,49.99441],[19.81459,49.99473],[19.81423,49.99501],[19.81421,49.99512],[19.81431,49.99529],[19.81484,49.99555],[19.81516,49.99581],[19.81606,49.99594],[19.8181,49.99647],[19.81833,49.99645],[19.81842,49.99676],[19.81935,49.99699],[19.82194,49.99677],[19.82244,49.99624],[19.82284,49.99631],[19.83161,49.99604],[19.83168,49.99594],[19.83707,49.99553],[19.83708,49.99546],[19.8381,49.99502],[19.84116,49.99481],[19.84176,49.99496],[19.84266,49.99504],[19.84311,49.99478],[19.84368,49.99485],[19.84392,49.99477],[19.84396,49.99454],[19.84404,49.9945],[19.84468,49.99472],[19.84483,49.99472],[19.8448,49.99459],[19.8463,49.99456],[19.84686,49.99474],[19.84739,49.99475],[19.84768,49.99461],[19.84792,49.99464],[19.84795,49.99476],[19.84839,49.9949],[19.84885,49.9948],[19.84901,49.99487],[19.84953,49.99467],[19.84924,49.99267],[19.84911,49.99217],[19.84877,49.99156],[19.84855,49.99069],[19.84831,49.99032],[19.84825,49.98999],[19.84852,49.98788],[19.84865,49.98748],[19.84878,49.98519],[19.85171,49.98544],[19.85337,49.98536],[19.85448,49.98551],[19.85667,49.9855],[19.85794,49.98526],[19.85876,49.9849],[19.85986,49.98472],[19.86073,49.98461],[19.86239,49.98471],[19.86266,49.98418],[19.86303,49.98389],[19.86437,49.9833],[19.86446,49.98318],[19.86457,49.98165],[19.86441,49.98081],[19.86449,49.98014],[19.86244,49.97983],[19.8625,49.97928],[19.86229,49.97926],[19.86238,49.97863],[19.86294,49.97862],[19.86305,49.97729],[19.86298,49.97657],[19.86192,49.9762],[19.8607,49.97591],[19.86217,49.97517],[19.86334,49.97483],[19.86487,49.97463],[19.86767,49.97448],[19.86831,49.97333],[19.86893,49.97248],[19.86966,49.97205],[19.87024,49.97183],[19.8714,49.97167],[19.87245,49.9717],[19.87286,49.97166],[19.87287,49.97159],[19.87309,49.9715],[19.87391,49.97142],[19.87652,49.97152],[19.87944,49.97145],[19.87948,49.97214],[19.87968,49.97264],[19.87974,49.97319],[19.87969,49.97355],[19.87998,49.97405],[19.88045,49.97444],[19.88104,49.97472],[19.88134,49.97472],[19.88218,49.97494],[19.88243,49.97531],[19.88274,49.97544],[19.88295,49.97564],[19.88369,49.97587],[19.88432,49.97594],[19.8847,49.97611],[19.88479,49.97631],[19.88486,49.97631],[19.88488,49.97656],[19.88531,49.97677],[19.88544,49.97693],[19.88538,49.97723],[19.88517,49.97739],[19.88517,49.97767],[19.88532,49.97778],[19.88513,49.97797],[19.88543,49.97807],[19.88545,49.97833],[19.88611,49.97855],[19.88597,49.97866],[19.886,49.97877],[19.88631,49.97887],[19.88636,49.97907],[19.88651,49.97919],[19.88665,49.97917],[19.88676,49.97929],[19.88694,49.97923],[19.88705,49.97935],[19.8873,49.97937],[19.8874,49.97985],[19.88728,49.98005],[19.88744,49.98035],[19.88732,49.98039],[19.88747,49.98104],[19.88881,49.98271],[19.88888,49.98333],[19.88627,49.98312],[19.88639,49.98349],[19.88626,49.98399],[19.88626,49.98441],[19.88618,49.98454],[19.88583,49.98462],[19.88577,49.98471],[19.88593,49.98508],[19.88681,49.98615],[19.88696,49.98649],[19.88708,49.98661],[19.8906,49.98682],[19.89186,49.9868],[19.8932,49.98693],[19.89279,49.98758],[19.8928,49.98797],[19.89298,49.98847],[19.89262,49.98863],[19.89231,49.98893],[19.89191,49.98908],[19.89184,49.99],[19.89159,49.99],[19.8916,49.98991],[19.89152,49.98992],[19.8912,49.99009],[19.89014,49.9904],[19.89016,49.99062],[19.89005,49.9908],[19.88992,49.99083],[19.89018,49.99219],[19.89021,49.99228],[19.89149,49.99237],[19.89255,49.99233],[19.89273,49.9925],[19.89309,49.99323],[19.89507,49.99512],[19.89554,49.99592],[19.89562,49.99617],[19.89555,49.99634],[19.89582,49.9961],[19.89493,49.99831],[19.89398,49.99827],[19.89397,49.99975],[19.8936,50.00005],[19.89175,50.00115],[19.88957,50.00236],[19.88882,50.00268],[19.88982,50.00565],[19.89003,50.00681],[19.89141,50.007],[19.89161,50.00715],[19.8918,50.0076],[19.89202,50.00769],[19.89333,50.00764],[19.8938,50.00771],[19.89382,50.00762],[19.89549,50.00757],[19.89673,50.00711],[19.89858,50.00664],[19.90162,50.00649],[19.903,50.00655],[19.9038,50.00671],[19.90505,50.00719],[19.90746,50.00876],[19.90709,50.00922],[19.90705,50.00943],[19.90728,50.00979],[19.90779,50.01031],[19.90765,50.01034],[19.90751,50.01078],[19.90886,50.01297],[19.90987,50.01414],[19.91042,50.0151],[19.91068,50.01581],[19.91113,50.01644],[19.91314,50.01858],[19.9136,50.01887],[19.91367,50.01898],[19.91366,50.01959],[19.91378,50.01956],[19.91436,50.0206],[19.91502,50.02094],[19.91733,50.02169],[19.91955,50.02221],[19.91969,50.02239],[19.92069,50.02307],[19.9223,50.02328],[19.92209,50.02334],[19.9221,50.02348],[19.92222,50.02441],[19.92243,50.0249],[19.92249,50.02531],[19.92233,50.02544],[19.9222,50.02634],[19.92204,50.02656],[19.92527,50.02584],[19.92536,50.02536],[19.92578,50.02521],[19.92571,50.02547],[19.92581,50.02577],[19.92604,50.02604],[19.92679,50.02657],[19.92686,50.02677],[19.92686,50.02693],[19.92652,50.02732],[19.92659,50.02756],[19.92686,50.02787],[19.9268,50.02816],[19.92629,50.02846],[19.92613,50.02884],[19.92642,50.02918],[19.9272,50.02959],[19.92836,50.03148],[19.92846,50.03184],[19.92842,50.03205],[19.92731,50.03312],[19.92723,50.03334],[19.9273,50.0335],[19.92761,50.03368],[19.92826,50.03386],[19.92863,50.03418],[19.9287,50.03452],[19.92817,50.0351],[19.92817,50.03527],[19.92858,50.03585],[19.92897,50.03613],[19.93197,50.03771],[19.93483,50.03936],[19.93522,50.03978],[19.93544,50.04028],[19.93561,50.04104],[19.94101,50.04409],[19.94206,50.04483],[19.94095,50.04486],[19.93966,50.04503],[19.93875,50.04531],[19.9378,50.04578],[19.93707,50.04637],[19.93498,50.04869],[19.93313,50.05136],[19.93165,50.05396],[19.93138,50.0542],[19.93076,50.05437],[19.92981,50.05445],[19.92849,50.05417],[19.92612,50.05313],[19.92473,50.05263],[19.92184,50.05196],[19.9158,50.05121],[19.91106,50.05121],[19.90997,50.05108],[19.90898,50.05076],[19.90821,50.05037],[19.90727,50.04974],[19.90638,50.04875],[19.90606,50.04836],[19.90547,50.0472],[19.90467,50.04595],[19.90274,50.04374],[19.90085,50.04122],[19.89919,50.03985],[19.89825,50.03931],[19.89594,50.03858],[19.89131,50.0384],[19.88735,50.0381],[19.88448,50.03811],[19.88201,50.03832],[19.87952,50.03871],[19.87809,50.03938],[19.87249,50.04319],[19.87087,50.04365],[19.86905,50.04392],[19.86699,50.04398],[19.86591,50.04392],[19.86109,50.0434],[19.85163,50.04338],[19.84889,50.043],[19.84737,50.04245],[19.84628,50.04187],[19.84526,50.04127],[19.84439,50.04055],[19.84336,50.03994],[19.84136,50.03856],[19.83919,50.03748],[19.83673,50.03657],[19.83544,50.03626],[19.83407,50.03607],[19.83127,50.03585],[19.8286,50.03533],[19.82778,50.035],[19.82698,50.03449],[19.82643,50.0336],[19.82625,50.03306],[19.82623,50.03274],[19.82451,50.03207],[19.82633,50.03241],[19.82655,50.03169],[19.82768,50.02975],[19.82895,50.02692],[19.8291,50.02581],[19.82893,50.02525],[19.82869,50.02472],[19.82816,50.02409],[19.82771,50.02375],[19.82182,50.02088],[19.82033,50.02046],[19.81859,50.02037],[19.81776,50.02049],[19.81616,50.02096],[19.81518,50.02151],[19.81487,50.02177],[19.81396,50.02336],[19.81235,50.02543],[19.81159,50.02585],[19.81032,50.02637],[19.80867,50.02656],[19.80712,50.02643],[19.80591,50.02609],[19.8043,50.02523],[19.80313,50.02425],[19.80263,50.02365],[19.802,50.02269],[19.80087,50.02031],[19.80043,50.01829],[19.79993,50.01752],[19.79927,50.01681],[19.79849,50.01618],[19.79755,50.01561],[19.79473,50.01485],[19.79386,50.0144],[19.79336,50.01396],[19.79265,50.01307],[19.7923,50.01226],[19.79224,50.01181]]]}},{"type":"Feature","properties":{"id":9,"nr":"IX","nazwa":"Łagiewniki-Borek Fałęcki"},"geometry":{"type":"Polygon","coordinates":[[[19.90705,50.00943],[19.90709,50.00922],[19.90746,50.00876],[19.90813,50.00919],[19.90923,50.00953],[19.91349,50.00958],[19.91437,50.00935],[19.91595,50.00812],[19.91839,50.00741],[19.91938,50.00737],[19.92132,50.00773],[19.92196,50.00774],[19.92618,50.00733],[19.92934,50.00756],[19.93224,50.00748],[19.93292,50.00758],[19.93304,50.00762],[19.93299,50.00777],[19.93525,50.00797],[19.93544,50.00773],[19.93542,50.00733],[19.93553,50.0068],[19.9354,50.0059],[19.93507,50.00543],[19.93464,50.00496],[19.93444,50.0048],[19.9343,50.0048],[19.93432,50.00469],[19.93388,50.0044],[19.93385,50.00434],[19.93398,50.00432],[19.93369,50.00399],[19.93255,50.00321],[19.93094,50.00247],[19.93204,50.00226],[19.93275,50.00179],[19.93307,50.00173],[19.93299,50.00221],[19.93329,50.00261],[19.93351,50.00255],[19.93399,50.00223],[19.93461,50.00204],[19.93969,50.0025],[19.93964,50.00235],[19.93973,50.00224],[19.94006,50.00215],[19.94078,50.00249],[19.94349,50.00561],[19.94416,50.00564],[19.94384,50.0058],[19.94468,50.00584],[19.94517,50.00687],[19.94401,50.00989],[19.94384,50.01069],[19.944,50.01162],[19.94486,50.01258],[19.94502,50.01255],[19.94505,50.01266],[19.94497,50.01344],[19.94512,50.01344],[19.94483,50.01488],[19.94508,50.01537],[19.94538,50.01883],[19.94559,50.02251],[19.9456,50.02332],[19.94549,50.02384],[19.94432,50.02807],[19.9443,50.02851],[19.94105,50.02764],[19.94097,50.02792],[19.94076,50.02796],[19.94079,50.02816],[19.94064,50.02823],[19.93684,50.0289],[19.93668,50.02876],[19.93656,50.02879],[19.93643,50.02855],[19.93613,50.02861],[19.93532,50.02895],[19.93536,50.02914],[19.93413,50.02973],[19.93242,50.03027],[19.93238,50.03021],[19.92927,50.03021],[19.92914,50.03028],[19.92808,50.03029],[19.92805,50.03021],[19.92758,50.03022],[19.9272,50.02959],[19.92642,50.02918],[19.92613,50.02884],[19.92629,50.02846],[19.9268,50.02816],[19.92686,50.02787],[19.92659,50.02756],[19.92652,50.02732],[19.92686,50.02693],[19.92686,50.02677],[19.92679,50.02657],[19.92604,50.02604],[19.92581,50.02577],[19.92571,50.02547],[19.92578,50.02521],[19.92536,50.02536],[19.92527,50.02584],[19.92204,50.02656],[19.9222,50.02634],[19.92233,50.02544],[19.92249,50.02531],[19.92243,50.0249],[19.92222,50.02441],[19.9221,50.02348],[19.92209,50.02334],[19.9223,50.02328],[19.92069,50.02307],[19.91969,50.02239],[19.91955,50.02221],[19.91733,50.02169],[19.91502,50.02094],[19.91436,50.0206],[19.91378,50.01956],[19.91366,50.01959],[19.91367,50.01898],[19.9136,50.01887],[19.91314,50.01858],[19.91239,50.01771],[19.91167,50.01705],[19.91068,50.01581],[19.91042,50.0151],[19.90987,50.01414],[19.90886,50.01297],[19.90751,50.01078],[19.90765,50.01034],[19.90779,50.01031],[19.90728,50.00979],[19.90705,50.00943]]]}},{"type":"Feature","properties":{"id":10,"nr":"X","nazwa":"Swoszowice"},"geometry":{"type":"Polygon","coordinates":[[[19.88577,49.98471],[19.88583,49.98462],[19.88618,49.98454],[19.88626,49.98441],[19.88626,49.98399],[19.88639,49.98349],[19.88627,49.98312],[19.88888,49.98333],[19.88881,49.98271],[19.88747,49.98104],[19.88732,49.98039],[19.88793,49.98036],[19.88832,49.98052],[19.88833,49.98064],[19.89176,49.98054],[19.89177,49.98027],[19.89321,49.98036],[19.89497,49.98061],[19.8959,49.98062],[19.89589,49.98044],[19.89626,49.98043],[19.89709,49.98058],[19.89809,49.98062],[19.89854,49.98076],[19.89904,49.98104],[19.89915,49.98098],[19.90016,49.98122],[19.90119,49.98108],[19.90118,49.98114],[19.90137,49.98112],[19.90192,49.98131],[19.90366,49.98139],[19.90563,49.98128],[19.9073,49.9815],[19.90856,49.9815],[19.90869,49.98162],[19.90937,49.98177],[19.90965,49.98197],[19.90979,49.98183],[19.912,49.98131],[19.91261,49.98025],[19.91335,49.97985],[19.91407,49.97993],[19.91898,49.98],[19.92219,49.98055],[19.9257,49.98132],[19.92609,49.981],[19.9269,49.98097],[19.92734,49.98082],[19.92782,49.98028],[19.92739,49.98003],[19.92742,49.97982],[19.92774,49.97959],[19.92808,49.97965],[19.92825,49.97955],[19.92824,49.97933],[19.92841,49.97915],[19.92909,49.97925],[19.92954,49.97918],[19.92993,49.97899],[19.9307,49.97883],[19.93091,49.97855],[19.93143,49.97843],[19.9321,49.97871],[19.93259,49.97879],[19.93244,49.97821],[19.93256,49.97815],[19.93288,49.97818],[19.93298,49.97793],[19.93318,49.97771],[19.93294,49.97748],[19.93298,49.97686],[19.93345,49.97683],[19.93361,49.97648],[19.93371,49.97644],[19.93447,49.97644],[19.93405,49.97557],[19.93777,49.97454],[19.93792,49.97474],[19.93816,49.97454],[19.93835,49.97455],[19.93849,49.97466],[19.93853,49.97484],[19.9388,49.97471],[19.93887,49.97456],[19.93907,49.97454],[19.93913,49.97458],[19.939,49.97467],[19.93907,49.97482],[19.93952,49.97471],[19.93958,49.97491],[19.9395,49.97507],[19.93957,49.97513],[19.94026,49.97528],[19.94035,49.9752],[19.9401,49.97487],[19.94074,49.9748],[19.94061,49.97446],[19.94161,49.97446],[19.94186,49.97431],[19.9422,49.97436],[19.94216,49.97416],[19.94239,49.97403],[19.94282,49.97393],[19.94327,49.97394],[19.94293,49.97368],[19.94281,49.97341],[19.94285,49.97334],[19.94377,49.97284],[19.94444,49.97306],[19.94462,49.9727],[19.94492,49.97261],[19.94482,49.97233],[19.94492,49.97221],[19.94598,49.97228],[19.9466,49.97209],[19.94728,49.97231],[19.94765,49.97229],[19.94833,49.97207],[19.94878,49.97168],[19.94878,49.97143],[19.94897,49.9713],[19.94946,49.97136],[19.94985,49.97121],[19.95069,49.97108],[19.95072,49.9709],[19.95055,49.97078],[19.95057,49.9707],[19.95122,49.97064],[19.95114,49.97038],[19.95087,49.97035],[19.95077,49.97024],[19.95084,49.96986],[19.95171,49.96952],[19.95202,49.96956],[19.95199,49.96986],[19.95211,49.9701],[19.95229,49.97014],[19.95297,49.96984],[19.95331,49.97012],[19.9538,49.97008],[19.95411,49.96947],[19.955,49.96915],[19.95521,49.96867],[19.95572,49.96865],[19.95574,49.96857],[19.95547,49.96824],[19.95551,49.96789],[19.95539,49.96771],[19.95567,49.96767],[19.95615,49.96771],[19.95608,49.96787],[19.95617,49.96803],[19.95662,49.96825],[19.95718,49.96825],[19.95753,49.96787],[19.9576,49.96806],[19.9574,49.96808],[19.95728,49.96825],[19.95745,49.96838],[19.95862,49.96827],[19.9587,49.96837],[19.95887,49.96824],[19.95895,49.96844],[19.95888,49.96858],[19.9593,49.96875],[19.9594,49.96896],[19.95936,49.96915],[19.95946,49.96926],[19.96016,49.96911],[19.96051,49.96891],[19.9612,49.96901],[19.9616,49.96895],[19.96164,49.96887],[19.9615,49.96844],[19.96168,49.96833],[19.96248,49.96842],[19.96257,49.96867],[19.96344,49.96856],[19.96327,49.96949],[19.96296,49.97038],[19.96289,49.97105],[19.96293,49.97165],[19.96309,49.97232],[19.9649,49.97302],[19.96704,49.97316],[19.96706,49.97375],[19.96684,49.97414],[19.96652,49.97445],[19.96595,49.97549],[19.96594,49.97573],[19.9656,49.97648],[19.96523,49.97685],[19.96485,49.97758],[19.96435,49.97766],[19.9643,49.97775],[19.96477,49.97776],[19.96524,49.97789],[19.96543,49.9782],[19.9656,49.97824],[19.96562,49.97843],[19.96616,49.97828],[19.96638,49.97834],[19.96654,49.97848],[19.96654,49.97875],[19.96684,49.97886],[19.96704,49.97875],[19.96728,49.97876],[19.96752,49.9789],[19.96843,49.97903],[19.96861,49.97911],[19.96856,49.97923],[19.9687,49.97927],[19.96879,49.97944],[19.96896,49.97949],[19.96926,49.97943],[19.96929,49.97952],[19.9695,49.9796],[19.96959,49.97959],[19.96961,49.97949],[19.96995,49.97952],[19.9699,49.97958],[19.96998,49.97962],[19.97094,49.97997],[19.97112,49.97996],[19.97121,49.97985],[19.97144,49.97993],[19.97168,49.97982],[19.97182,49.97996],[19.972,49.97997],[19.97209,49.98013],[19.97226,49.98011],[19.97229,49.98],[19.97357,49.98037],[19.9744,49.98039],[19.97459,49.98056],[19.97564,49.98085],[19.97588,49.98075],[19.97618,49.98087],[19.97655,49.98078],[19.97696,49.98079],[19.97711,49.98085],[19.97711,49.98101],[19.9777,49.98106],[19.97786,49.98117],[19.97848,49.98117],[19.97865,49.98108],[19.97881,49.98115],[19.97891,49.98108],[19.97919,49.98112],[19.97927,49.98103],[19.97961,49.98106],[19.98045,49.98094],[19.98222,49.98103],[19.98249,49.98092],[19.98259,49.9807],[19.98252,49.98045],[19.98259,49.98019],[19.98228,49.97986],[19.98225,49.97971],[19.98206,49.97963],[19.98196,49.97898],[19.98186,49.97879],[19.98143,49.97844],[19.98138,49.97823],[19.98139,49.978],[19.98177,49.97755],[19.98174,49.97743],[19.98224,49.97711],[19.98216,49.97688],[19.98226,49.97609],[19.98215,49.97519],[19.98152,49.97414],[19.98144,49.97368],[19.98107,49.97322],[19.98128,49.97263],[19.98378,49.97259],[19.98577,49.9728],[19.98704,49.97304],[19.99008,49.973],[19.99262,49.97333],[19.99362,49.97356],[19.99728,49.97394],[19.99799,49.97408],[19.99806,49.9743],[19.99931,49.97481],[19.99978,49.97486],[19.99987,49.97502],[20.00113,49.97568],[20.00219,49.97537],[20.00283,49.97536],[20.00339,49.97515],[20.0029,49.97468],[20.00368,49.97462],[20.00687,49.97476],[20.00809,49.97504],[20.00822,49.97508],[20.00784,49.97524],[20.00767,49.97541],[20.00824,49.97596],[20.00907,49.97618],[20.00917,49.9761],[20.01002,49.97724],[20.00968,49.97958],[20.0097,49.98018],[20.01134,49.98086],[20.01376,49.98229],[20.01518,49.98347],[20.01602,49.98438],[20.01672,49.98486],[20.0186,49.98586],[20.01867,49.98632],[20.01844,49.98666],[20.01782,49.9872],[20.01588,49.98837],[20.01543,49.98885],[20.01511,49.9896],[20.01499,49.98969],[20.01471,49.99048],[20.01391,49.99135],[20.01365,49.99213],[20.01366,49.99263],[20.0134,49.99346],[20.01302,49.99359],[20.01272,49.99385],[20.01223,49.99468],[20.01156,49.99509],[20.01099,49.99528],[20.01027,49.99516],[20.0085,49.99553],[20.00709,49.99646],[20.00652,49.99665],[20.00614,49.99666],[20.0052,49.99704],[20.00478,49.99712],[20.00443,49.99697],[20.00449,49.99702],[20.0044,49.99724],[20.00402,49.99749],[20.00414,49.9976],[20.00364,49.99792],[20.00325,49.99801],[20.00327,49.9982],[20.00307,49.99873],[20.00274,49.99908],[20.00276,49.99924],[20.00348,49.99983],[20.00352,50.00039],[20.0037,50.00053],[20.00364,50.00059],[20.00372,50.00077],[20.00414,50.00119],[20.00394,50.00139],[20.00229,50.00129],[20.00126,50.00133],[20.0012,50.00114],[19.99917,50.0008],[19.99527,50.00054],[19.99372,50.00024],[19.99215,50.00041],[19.99192,50.00012],[19.99168,50.00006],[19.9915,50.00019],[19.9902,50.00025],[19.99018,50.00031],[19.98851,50.00022],[19.98848,50.0003],[19.98745,50.00011],[19.98694,50.00011],[19.98304,50.00032],[19.98305,50.00026],[19.98279,50.0002],[19.98252,50.00054],[19.98198,50.00077],[19.97325,50.00114],[19.97319,50.00124],[19.97306,50.00119],[19.97272,50.00134],[19.97272,50.00106],[19.9721,50.00084],[19.97185,50.00119],[19.97119,50.00111],[19.97122,50.00102],[19.97026,50.0009],[19.96976,50.00141],[19.96909,50.00157],[19.96723,50.00147],[19.96723,50.00158],[19.96565,50.00142],[19.96218,50.00086],[19.96239,50.0003],[19.96161,50.0003],[19.96133,50.00017],[19.96127,50.00028],[19.95776,50.00016],[19.9554,49.99995],[19.95177,49.99992],[19.9467,50.0004],[19.94682,50.00025],[19.94676,50.00023],[19.94671,50.00029],[19.94502,50.00047],[19.945,50.00037],[19.94522,50.00017],[19.94518,50.00002],[19.94498,50.00001],[19.94461,50.00018],[19.94406,50.00012],[19.94271,50.00035],[19.94157,50.00034],[19.94097,50.00027],[19.94036,49.99996],[19.93952,49.99982],[19.93945,49.9996],[19.93823,49.99983],[19.93724,50.0003],[19.93626,50.00025],[19.93578,50.00074],[19.9358,50.00068],[19.93538,50.00069],[19.93489,50.00016],[19.93476,50.0002],[19.93516,50.0012],[19.93515,50.00151],[19.93477,50.00206],[19.93461,50.00204],[19.93399,50.00223],[19.93351,50.00255],[19.93329,50.00261],[19.93299,50.00221],[19.93307,50.00173],[19.93275,50.00179],[19.93204,50.00226],[19.93094,50.00247],[19.93255,50.00321],[19.93369,50.00399],[19.93398,50.00432],[19.93385,50.00434],[19.93388,50.0044],[19.93432,50.00469],[19.9343,50.0048],[19.93444,50.0048],[19.93464,50.00496],[19.93507,50.00543],[19.9354,50.0059],[19.93553,50.0068],[19.93542,50.00733],[19.93544,50.00773],[19.93525,50.00797],[19.93299,50.00777],[19.93304,50.00762],[19.93292,50.00758],[19.93224,50.00748],[19.92934,50.00756],[19.92618,50.00733],[19.92196,50.00774],[19.92132,50.00773],[19.91938,50.00737],[19.91839,50.00741],[19.91595,50.00812],[19.91474,50.0091],[19.91407,50.00947],[19.91317,50.0096],[19.90971,50.00957],[19.90899,50.00949],[19.90813,50.00919],[19.90505,50.00719],[19.9038,50.00671],[19.903,50.00655],[19.90162,50.00649],[19.89858,50.00664],[19.89673,50.00711],[19.89549,50.00757],[19.89382,50.00762],[19.8938,50.00771],[19.89333,50.00764],[19.89202,50.00769],[19.8918,50.0076],[19.89161,50.00715],[19.89141,50.007],[19.89003,50.00681],[19.88982,50.00565],[19.88882,50.00268],[19.88957,50.00236],[19.89175,50.00115],[19.8936,50.00005],[19.89397,49.99975],[19.89398,49.99827],[19.89493,49.99831],[19.89582,49.9961],[19.89555,49.99634],[19.89562,49.99617],[19.89554,49.99592],[19.89507,49.99512],[19.89309,49.99323],[19.89273,49.9925],[19.89255,49.99233],[19.89149,49.99237],[19.89021,49.99228],[19.89018,49.99219],[19.88992,49.99083],[19.89005,49.9908],[19.89016,49.99062],[19.89014,49.9904],[19.8912,49.99009],[19.89152,49.98992],[19.8916,49.98991],[19.89159,49.99],[19.89184,49.99],[19.89191,49.98908],[19.89231,49.98893],[19.89262,49.98863],[19.89298,49.98847],[19.8928,49.98797],[19.89279,49.98758],[19.8932,49.98693],[19.89186,49.9868],[19.8906,49.98682],[19.88708,49.98661],[19.88681,49.98615],[19.88593,49.98508],[19.88577,49.98471]]]}},{"type":"Feature","properties":{"id":11,"nr":"XI","nazwa":"Podgórze Duchackie"},"geometry":{"type":"Polygon","coordinates":[[[19.93476,50.0002],[19.93489,50.00016],[19.93538,50.00069],[19.9358,50.00068],[19.93578,50.00074],[19.93626,50.00025],[19.93724,50.0003],[19.93823,49.99983],[19.93945,49.9996],[19.93952,49.99982],[19.94036,49.99996],[19.94097,50.00027],[19.94157,50.00034],[19.94271,50.00035],[19.94406,50.00012],[19.94461,50.00018],[19.94498,50.00001],[19.94518,50.00002],[19.94522,50.00017],[19.945,50.00037],[19.94502,50.00047],[19.94671,50.00029],[19.94676,50.00023],[19.94682,50.00025],[19.9467,50.0004],[19.95177,49.99992],[19.9554,49.99995],[19.95776,50.00016],[19.96127,50.00028],[19.96133,50.00017],[19.96161,50.0003],[19.96239,50.0003],[19.96218,50.00086],[19.96565,50.00142],[19.96723,50.00158],[19.96723,50.00147],[19.96909,50.00157],[19.96976,50.00141],[19.97026,50.0009],[19.97122,50.00102],[19.97119,50.00111],[19.97185,50.00119],[19.9721,50.00084],[19.97272,50.00106],[19.97272,50.00134],[19.97306,50.00119],[19.97319,50.00124],[19.97325,50.00114],[19.98198,50.00077],[19.98252,50.00054],[19.98279,50.0002],[19.98305,50.00026],[19.98304,50.00032],[19.98694,50.00011],[19.98745,50.00011],[19.98848,50.0003],[19.98851,50.00022],[19.99018,50.00031],[19.9902,50.00025],[19.9915,50.00019],[19.99168,50.00006],[19.99192,50.00012],[19.99215,50.00041],[19.99372,50.00024],[19.99527,50.00054],[19.99868,50.00075],[20.0012,50.00114],[20.00126,50.00133],[20.00007,50.0014],[20.00066,50.00203],[20.00016,50.00216],[20.00021,50.00235],[20.0004,50.00247],[20.00131,50.00254],[20.0017,50.00267],[20.0032,50.0034],[20.00163,50.00383],[20.0014,50.00423],[20.00127,50.00475],[20.00066,50.00539],[19.99999,50.00592],[19.99906,50.00642],[19.99822,50.00703],[19.99714,50.00788],[19.9967,50.00835],[19.99254,50.01017],[19.9924,50.01038],[19.99152,50.01061],[19.99158,50.01078],[19.99071,50.01126],[19.99055,50.0115],[19.99051,50.012],[19.99065,50.01194],[19.99065,50.01201],[19.99053,50.01223],[19.99024,50.01234],[19.99096,50.01292],[19.99085,50.013],[19.99082,50.01329],[19.99117,50.01343],[19.99239,50.01324],[19.99225,50.01343],[19.99179,50.01365],[19.99125,50.01419],[19.99106,50.01452],[19.99119,50.01484],[19.99121,50.01544],[19.99029,50.0152],[19.98979,50.01494],[19.98942,50.01502],[19.98845,50.01489],[19.9879,50.01501],[19.98736,50.01497],[19.98661,50.01509],[19.98472,50.01493],[19.98236,50.015],[19.98118,50.01491],[19.97866,50.015],[19.97821,50.01491],[19.97788,50.01506],[19.97432,50.01528],[19.97269,50.01558],[19.97274,50.01598],[19.97556,50.01659],[19.97621,50.0168],[19.97679,50.0172],[19.97716,50.0178],[19.97716,50.01903],[19.97723,50.01904],[19.97725,50.01957],[19.97714,50.01999],[19.97703,50.02131],[19.97714,50.02158],[19.97704,50.02156],[19.97713,50.02238],[19.97752,50.02291],[19.97889,50.02396],[19.97739,50.02488],[19.97725,50.02486],[19.97716,50.02505],[19.9763,50.02554],[19.97416,50.02608],[19.97378,50.02597],[19.97343,50.02623],[19.97121,50.02661],[19.97015,50.02675],[19.96983,50.02667],[19.96981,50.02675],[19.96607,50.02698],[19.96604,50.02708],[19.96306,50.02766],[19.96291,50.02762],[19.96289,50.02771],[19.96214,50.02788],[19.95949,50.02838],[19.95909,50.02829],[19.95923,50.0279],[19.95891,50.02782],[19.95803,50.02839],[19.95808,50.02853],[19.95617,50.02888],[19.95599,50.02893],[19.95597,50.02903],[19.95247,50.02974],[19.95042,50.03038],[19.94923,50.03096],[19.94878,50.03133],[19.94833,50.03147],[19.94838,50.03161],[19.94764,50.03219],[19.94758,50.03236],[19.94727,50.0326],[19.94697,50.03266],[19.94691,50.03189],[19.94613,50.02981],[19.94542,50.02908],[19.9443,50.02851],[19.94432,50.02807],[19.94549,50.02384],[19.9456,50.02332],[19.94559,50.02251],[19.94538,50.01883],[19.94508,50.01537],[19.94483,50.01488],[19.94512,50.01344],[19.94497,50.01344],[19.94505,50.01266],[19.94502,50.01255],[19.94486,50.01258],[19.944,50.01162],[19.94384,50.01069],[19.94401,50.00989],[19.94459,50.00828],[19.94514,50.00705],[19.94513,50.00675],[19.94468,50.00584],[19.94384,50.0058],[19.94416,50.00564],[19.94349,50.00561],[19.94078,50.00249],[19.94006,50.00215],[19.93973,50.00224],[19.93964,50.00235],[19.93969,50.0025],[19.93477,50.00206],[19.93515,50.00151],[19.93516,50.0012],[19.93476,50.0002]]]}},{"type":"Feature","properties":{"id":12,"nr":"XII","nazwa":"Bieżanów-Prokocim"},"geometry":{"type":"Polygon","coordinates":[[[19.97269,50.01558],[19.97432,50.01528],[19.97788,50.01506],[19.97821,50.01491],[19.97866,50.015],[19.98118,50.01491],[19.98236,50.015],[19.98472,50.01493],[19.98661,50.01509],[19.98736,50.01497],[19.9879,50.01501],[19.98845,50.01489],[19.98942,50.01502],[19.98979,50.01494],[19.99029,50.0152],[19.99121,50.01544],[19.99119,50.01484],[19.99106,50.01452],[19.99125,50.01419],[19.99179,50.01365],[19.99225,50.01343],[19.99239,50.01324],[19.99117,50.01343],[19.99082,50.01329],[19.99085,50.013],[19.99096,50.01292],[19.99024,50.01234],[19.99053,50.01223],[19.99065,50.01201],[19.99065,50.01194],[19.99051,50.012],[19.99055,50.0115],[19.99071,50.01126],[19.99158,50.01078],[19.99152,50.01061],[19.9924,50.01038],[19.99254,50.01017],[19.9967,50.00835],[19.99714,50.00788],[19.99822,50.00703],[19.99906,50.00642],[19.99999,50.00592],[20.00066,50.00539],[20.00127,50.00475],[20.0014,50.00423],[20.00163,50.00383],[20.0032,50.0034],[20.00131,50.00254],[20.0004,50.00247],[20.00021,50.00235],[20.00016,50.00216],[20.00066,50.00203],[20.00007,50.0014],[20.00229,50.00129],[20.00394,50.00139],[20.00426,50.00117],[20.00575,50.00173],[20.00611,50.00196],[20.00631,50.00249],[20.01054,50.00333],[20.01327,50.00371],[20.01673,50.00395],[20.01748,50.00424],[20.01828,50.00433],[20.01849,50.00418],[20.01848,50.00395],[20.01874,50.00347],[20.01881,50.00311],[20.0202,50.0031],[20.02215,50.00325],[20.0236,50.00301],[20.02574,50.00145],[20.02848,49.99918],[20.02919,49.99929],[20.02932,49.99962],[20.02918,50.00041],[20.0288,50.00092],[20.02879,50.00106],[20.02889,50.0011],[20.03016,50.00097],[20.03073,50.00101],[20.03101,50.00092],[20.03575,50.00141],[20.03657,50.0013],[20.03772,50.001],[20.03874,50.00022],[20.03889,49.99994],[20.03916,49.99983],[20.04398,49.99915],[20.04514,49.99908],[20.04677,49.99915],[20.04717,49.999],[20.04759,49.999],[20.04797,49.99909],[20.04783,49.99936],[20.04773,50.00007],[20.0478,50.00177],[20.04815,50.00306],[20.04814,50.00399],[20.04828,50.00417],[20.04892,50.00431],[20.0496,50.00429],[20.05162,50.00383],[20.05389,50.0041],[20.05517,50.00411],[20.05516,50.0046],[20.05728,50.00471],[20.05752,50.00483],[20.05801,50.00545],[20.05829,50.00566],[20.06075,50.00533],[20.06135,50.00568],[20.06138,50.00583],[20.06159,50.00578],[20.06169,50.00597],[20.06176,50.00596],[20.06182,50.00625],[20.06233,50.00632],[20.06242,50.00675],[20.06256,50.00684],[20.06255,50.00701],[20.06231,50.00729],[20.06235,50.00762],[20.06292,50.00808],[20.06332,50.00819],[20.06433,50.00809],[20.06567,50.00779],[20.06626,50.00903],[20.06651,50.00903],[20.06676,50.00915],[20.06722,50.00954],[20.06741,50.00984],[20.06788,50.0117],[20.0679,50.01224],[20.06776,50.01272],[20.06762,50.01275],[20.06766,50.01309],[20.06803,50.01408],[20.06865,50.01511],[20.06886,50.01527],[20.06907,50.01572],[20.06937,50.01719],[20.06976,50.01835],[20.06843,50.022],[20.06771,50.02203],[20.06716,50.02219],[20.06504,50.02397],[20.06486,50.02427],[20.06769,50.02545],[20.06843,50.02648],[20.06909,50.02712],[20.07228,50.02976],[20.0728,50.03085],[20.07282,50.03143],[20.06276,50.03384],[20.05775,50.0337],[20.05378,50.03436],[20.05292,50.03443],[20.04736,50.03396],[20.03953,50.03402],[20.03882,50.03407],[20.03781,50.0343],[20.03688,50.03469],[20.03595,50.03496],[20.03501,50.03511],[20.03371,50.03506],[20.0331,50.03496],[20.03082,50.03417],[20.03008,50.03407],[20.02938,50.03411],[20.02918,50.0337],[20.02915,50.03331],[20.02971,50.03163],[20.02969,50.03074],[20.02956,50.03006],[20.02823,50.02896],[20.02784,50.02847],[20.02805,50.02714],[20.02805,50.02573],[20.02795,50.02532],[20.02647,50.02558],[20.02624,50.02573],[20.02614,50.02566],[20.02421,50.02568],[20.02274,50.02595],[20.02271,50.02589],[20.01982,50.02651],[20.01861,50.02684],[20.01866,50.02692],[20.01525,50.02784],[20.01436,50.02797],[20.01466,50.02815],[20.01483,50.02815],[20.01455,50.02833],[20.01453,50.02824],[20.0141,50.02801],[20.01368,50.0281],[20.01365,50.02803],[20.00488,50.02943],[20.00322,50.02945],[19.9997,50.02971],[19.99643,50.03017],[19.99645,50.03038],[19.99198,50.03084],[19.99205,50.03038],[19.9868,50.02696],[19.98609,50.02683],[19.98511,50.02636],[19.98553,50.02596],[19.9849,50.02576],[19.98448,50.02606],[19.98418,50.02596],[19.98371,50.02654],[19.98326,50.0264],[19.98294,50.02673],[19.98193,50.02708],[19.98111,50.02659],[19.97847,50.02588],[19.97738,50.02696],[19.97666,50.02672],[19.97742,50.02599],[19.97651,50.02541],[19.97716,50.02505],[19.97725,50.02486],[19.97739,50.02488],[19.97889,50.02396],[19.97752,50.02291],[19.97713,50.02238],[19.97704,50.02156],[19.97714,50.02158],[19.97703,50.02131],[19.97714,50.01999],[19.97725,50.01957],[19.97723,50.01904],[19.97716,50.01903],[19.97716,50.0178],[19.97679,50.0172],[19.97621,50.0168],[19.97556,50.01659],[19.97274,50.01598],[19.97269,50.01558]]]}},{"type":"Feature","properties":{"id":13,"nr":"XIII","nazwa":"Podgórze"},"geometry":{"type":"Polygon","coordinates":[[[19.92723,50.03334],[19.92731,50.03312],[19.92842,50.03205],[19.92846,50.03184],[19.92836,50.03148],[19.92758,50.03022],[19.92805,50.03021],[19.92808,50.03029],[19.92914,50.03028],[19.92927,50.03021],[19.93238,50.03021],[19.93242,50.03027],[19.93413,50.02973],[19.93536,50.02914],[19.93532,50.02895],[19.93613,50.02861],[19.93643,50.02855],[19.93656,50.02879],[19.93668,50.02876],[19.93684,50.0289],[19.94064,50.02823],[19.94079,50.02816],[19.94076,50.02796],[19.94097,50.02792],[19.94105,50.02764],[19.94421,50.02848],[19.94542,50.02908],[19.94594,50.02958],[19.94632,50.03018],[19.94671,50.03149],[19.94691,50.03189],[19.94697,50.03266],[19.94727,50.0326],[19.94758,50.03236],[19.94764,50.03219],[19.94838,50.03161],[19.94833,50.03147],[19.94878,50.03133],[19.94923,50.03096],[19.95042,50.03038],[19.95247,50.02974],[19.95597,50.02903],[19.95599,50.02893],[19.95617,50.02888],[19.95808,50.02853],[19.95803,50.02839],[19.95891,50.02782],[19.95923,50.0279],[19.95909,50.02829],[19.95949,50.02838],[19.96214,50.02788],[19.96289,50.02771],[19.96291,50.02762],[19.96306,50.02766],[19.96604,50.02708],[19.96607,50.02698],[19.96981,50.02675],[19.96983,50.02667],[19.97015,50.02675],[19.97208,50.02647],[19.97215,50.02639],[19.97349,50.02621],[19.97378,50.02597],[19.97416,50.02608],[19.97563,50.02574],[19.97651,50.02541],[19.97742,50.02599],[19.97666,50.02672],[19.97738,50.02696],[19.97847,50.02588],[19.98111,50.02659],[19.98193,50.02708],[19.98294,50.02673],[19.98326,50.0264],[19.98371,50.02654],[19.98418,50.02596],[19.98448,50.02606],[19.9849,50.02576],[19.98553,50.02596],[19.98511,50.02636],[19.98609,50.02683],[19.9868,50.02696],[19.99205,50.03038],[19.99198,50.03084],[19.99645,50.03038],[19.99643,50.03017],[19.9997,50.02971],[20.00322,50.02945],[20.00488,50.02943],[20.01365,50.02803],[20.01368,50.0281],[20.0141,50.02801],[20.01453,50.02824],[20.01455,50.02833],[20.01483,50.02815],[20.01466,50.02815],[20.01436,50.02797],[20.01525,50.02784],[20.01866,50.02692],[20.01861,50.02684],[20.01982,50.02651],[20.02271,50.02589],[20.02274,50.02595],[20.02421,50.02568],[20.02614,50.02566],[20.02624,50.02573],[20.02647,50.02558],[20.02795,50.02532],[20.02805,50.02573],[20.02805,50.02714],[20.02784,50.02847],[20.02823,50.02896],[20.02956,50.03006],[20.02969,50.03074],[20.02971,50.03163],[20.02915,50.03331],[20.02918,50.0337],[20.02938,50.03411],[20.03008,50.03407],[20.03082,50.03417],[20.0331,50.03496],[20.03416,50.0351],[20.03501,50.03511],[20.03639,50.03486],[20.03781,50.0343],[20.03882,50.03407],[20.03953,50.03402],[20.04736,50.03396],[20.05292,50.03443],[20.05378,50.03436],[20.05775,50.0337],[20.06276,50.03384],[20.07282,50.03143],[20.073,50.03176],[20.07354,50.03219],[20.07467,50.03259],[20.07877,50.03369],[20.08171,50.03426],[20.08162,50.03438],[20.08163,50.03468],[20.08081,50.03503],[20.07973,50.0358],[20.08051,50.03622],[20.08186,50.03666],[20.08236,50.0369],[20.08331,50.03774],[20.08381,50.0379],[20.08338,50.03829],[20.08305,50.03838],[20.08199,50.03891],[20.08101,50.03871],[20.08042,50.04019],[20.08044,50.04044],[20.08032,50.0407],[20.08074,50.04073],[20.08106,50.04065],[20.08135,50.04086],[20.0817,50.04078],[20.08231,50.04128],[20.08354,50.04149],[20.08443,50.04203],[20.08522,50.04277],[20.08562,50.04296],[20.08588,50.04349],[20.08616,50.04377],[20.08644,50.04392],[20.08689,50.04402],[20.08695,50.04409],[20.08688,50.04419],[20.08725,50.04455],[20.088,50.0449],[20.08859,50.04495],[20.08901,50.04485],[20.08923,50.04471],[20.08929,50.04444],[20.08963,50.04438],[20.09087,50.04365],[20.09101,50.04339],[20.09142,50.04311],[20.09151,50.04294],[20.09148,50.0428],[20.09171,50.04262],[20.09159,50.04241],[20.09164,50.04225],[20.09177,50.04231],[20.09183,50.04216],[20.09228,50.04207],[20.09234,50.04178],[20.09203,50.04132],[20.09164,50.04025],[20.09155,50.03959],[20.09169,50.03869],[20.09218,50.03802],[20.09402,50.03715],[20.09482,50.03699],[20.09596,50.03696],[20.09801,50.03728],[20.09936,50.0378],[20.10008,50.0383],[20.10112,50.03935],[20.10319,50.04118],[20.1007,50.04132],[20.09808,50.0418],[20.09624,50.04258],[20.09556,50.04302],[20.09506,50.04344],[20.09438,50.04442],[20.09416,50.04532],[20.09425,50.04594],[20.09441,50.04619],[20.09446,50.04761],[20.09399,50.04885],[20.09313,50.04998],[20.09168,50.05132],[20.0902,50.05217],[20.08835,50.05275],[20.08666,50.05306],[20.08295,50.05272],[20.07753,50.05172],[20.07291,50.05116],[20.06989,50.05066],[20.06616,50.0504],[20.06466,50.05047],[20.06096,50.05044],[20.05886,50.05057],[20.05727,50.05082],[20.05724,50.05076],[20.05512,50.05134],[20.05227,50.05188],[20.05057,50.05207],[20.0494,50.05204],[20.04834,50.05191],[20.04586,50.05127],[20.0446,50.05071],[20.04289,50.04966],[20.04162,50.049],[20.04039,50.04845],[20.03849,50.04797],[20.03705,50.04783],[20.03575,50.04784],[20.03226,50.04844],[20.03028,50.04913],[20.02736,50.05079],[20.02589,50.05138],[20.02442,50.05169],[20.02283,50.05168],[20.02142,50.05129],[20.02009,50.0506],[20.0191,50.04971],[20.01809,50.04862],[20.01775,50.04785],[20.01698,50.04658],[20.01647,50.04596],[20.01585,50.04554],[20.01515,50.04519],[20.01409,50.04495],[20.01309,50.04489],[20.01118,50.04503],[20.00861,50.04575],[20.00552,50.04698],[20.0032,50.04818],[20.00109,50.04951],[19.99986,50.05049],[19.99926,50.05113],[19.9983,50.05279],[19.99761,50.0542],[19.99705,50.055],[19.9969,50.05554],[19.99652,50.05605],[19.99561,50.05693],[19.99396,50.058],[19.9914,50.05927],[19.9903,50.05957],[19.98843,50.05982],[19.98685,50.05986],[19.98527,50.05962],[19.98423,50.0591],[19.98302,50.05823],[19.98233,50.05759],[19.98109,50.05587],[19.9802,50.05513],[19.97895,50.05426],[19.97702,50.05352],[19.97619,50.05337],[19.97371,50.0526],[19.97234,50.05231],[19.97062,50.05222],[19.96721,50.05273],[19.96424,50.05287],[19.96279,50.05281],[19.96009,50.05236],[19.95637,50.05103],[19.95021,50.04771],[19.94819,50.04673],[19.94414,50.04513],[19.94345,50.04497],[19.94206,50.04483],[19.94101,50.04409],[19.93561,50.04104],[19.93544,50.04028],[19.93522,50.03978],[19.93483,50.03936],[19.93197,50.03771],[19.92897,50.03613],[19.92858,50.03585],[19.92817,50.03527],[19.92817,50.0351],[19.9287,50.03452],[19.92863,50.03418],[19.92826,50.03386],[19.92761,50.03368],[19.9273,50.0335],[19.92723,50.03334]]]}},{"type":"Feature","properties":{"id":14,"nr":"XIV","nazwa":"Czyżyny"},"geometry":{"type":"Polygon","coordinates":[[[19.97952,50.08604],[19.98246,50.08627],[19.98234,50.08554],[19.98395,50.08554],[19.98453,50.08534],[19.98512,50.08477],[19.98558,50.08452],[19.98642,50.08432],[19.9867,50.08409],[19.98678,50.08371],[19.98618,50.08372],[19.98649,50.08317],[19.98655,50.08325],[19.98718,50.0834],[19.98763,50.08331],[19.98795,50.08275],[19.98827,50.08259],[19.98939,50.08052],[19.98893,50.08042],[19.98895,50.08035],[19.98764,50.0801],[19.98724,50.07967],[19.98863,50.07715],[19.98934,50.07658],[19.98906,50.07607],[19.98861,50.07593],[19.98813,50.0756],[19.98851,50.07327],[19.98742,50.07321],[19.9871,50.07254],[19.98626,50.07267],[19.98598,50.07253],[19.98587,50.07258],[19.98545,50.07217],[19.98573,50.07203],[19.98583,50.07186],[19.98545,50.07155],[19.98528,50.07157],[19.98417,50.07056],[19.98691,50.06916],[19.98756,50.0687],[19.98806,50.0682],[19.98828,50.06772],[19.98824,50.06751],[19.98811,50.06751],[19.98814,50.06723],[19.98831,50.06724],[19.98845,50.06711],[19.98874,50.06482],[19.98864,50.06447],[19.98454,50.06369],[19.98215,50.06245],[19.98277,50.06213],[19.98421,50.06179],[19.98483,50.06154],[19.98548,50.0611],[19.9858,50.06075],[19.98648,50.06038],[19.98685,50.05986],[19.98876,50.05979],[19.9903,50.05957],[19.9914,50.05927],[19.99396,50.058],[19.99509,50.05729],[19.99561,50.05693],[19.99652,50.05605],[19.9969,50.05554],[19.99705,50.055],[19.99761,50.0542],[19.99893,50.05163],[19.99926,50.05113],[19.99986,50.05049],[20.00179,50.04903],[20.0032,50.04818],[20.00552,50.04698],[20.00861,50.04575],[20.01118,50.04503],[20.01309,50.04489],[20.01409,50.04495],[20.01515,50.04519],[20.01647,50.04596],[20.01698,50.04658],[20.01748,50.04739],[20.01809,50.04862],[20.0191,50.04971],[20.02009,50.0506],[20.02142,50.05129],[20.02283,50.05168],[20.02442,50.05169],[20.02589,50.05138],[20.02736,50.05079],[20.03028,50.04913],[20.03226,50.04844],[20.03575,50.04784],[20.03705,50.04783],[20.03849,50.04797],[20.04039,50.04845],[20.04162,50.049],[20.04289,50.04966],[20.0446,50.05071],[20.04586,50.05127],[20.04834,50.05191],[20.04798,50.05267],[20.04744,50.05284],[20.04742,50.05313],[20.04754,50.05347],[20.04313,50.05372],[20.04259,50.05382],[20.04038,50.05458],[20.03613,50.05624],[20.03704,50.05709],[20.03729,50.05775],[20.0375,50.05769],[20.03933,50.05865],[20.03841,50.05894],[20.04013,50.05966],[20.04062,50.05995],[20.04111,50.06003],[20.04163,50.05998],[20.04157,50.06009],[20.04213,50.06145],[20.04146,50.06155],[20.04159,50.06235],[20.04033,50.06242],[20.04062,50.06317],[20.04014,50.06321],[20.03707,50.06408],[20.03533,50.06436],[20.03553,50.06397],[20.0339,50.06426],[20.03326,50.06429],[20.03252,50.06461],[20.03145,50.06477],[20.03048,50.06544],[20.02993,50.06559],[20.02952,50.06597],[20.02902,50.06607],[20.02918,50.06656],[20.02921,50.0672],[20.02897,50.06792],[20.02908,50.0681],[20.0293,50.06819],[20.02988,50.06866],[20.03089,50.06974],[20.02954,50.07011],[20.02926,50.0705],[20.02872,50.071],[20.02902,50.07144],[20.02922,50.07203],[20.02107,50.07294],[20.01939,50.07298],[20.01936,50.07286],[20.01858,50.07294],[20.0182,50.07286],[20.01781,50.0727],[20.01768,50.07256],[20.01659,50.07266],[20.01662,50.07279],[20.01614,50.07318],[20.01629,50.07395],[20.01736,50.07426],[20.01862,50.07486],[20.02136,50.07632],[20.02139,50.07644],[20.02184,50.07668],[20.02189,50.0768],[20.02093,50.07719],[20.01912,50.07768],[20.0193,50.07815],[20.01616,50.07889],[20.01587,50.07893],[20.01579,50.07861],[20.01524,50.07868],[20.01592,50.07981],[20.01574,50.07995],[20.01571,50.08095],[20.01589,50.08161],[20.0151,50.0819],[20.01377,50.08219],[20.01288,50.08262],[20.01184,50.08284],[20.01301,50.08501],[20.01327,50.0857],[20.00716,50.08677],[20.00374,50.08775],[20.00345,50.0881],[20.00111,50.08785],[19.99491,50.08758],[19.99406,50.08759],[19.99308,50.08774],[19.98865,50.08715],[19.98864,50.08704],[19.97952,50.08604]]]}},{"type":"Feature","properties":{"id":15,"nr":"XV","nazwa":"Mistrzejowice"},"geometry":{"type":"Polygon","coordinates":[[[19.97851,50.08793],[19.97933,50.08607],[19.97952,50.08604],[19.98864,50.08704],[19.98865,50.08715],[19.99308,50.08774],[19.99406,50.08759],[19.99491,50.08758],[20.00111,50.08785],[20.00368,50.08815],[20.00482,50.08854],[20.01269,50.09306],[20.01399,50.09393],[20.01607,50.095],[20.01728,50.09535],[20.01828,50.09552],[20.01944,50.0955],[20.02069,50.09526],[20.02657,50.09351],[20.02789,50.09332],[20.02894,50.09337],[20.02952,50.09329],[20.02988,50.09357],[20.03073,50.09368],[20.03122,50.09392],[20.03149,50.0942],[20.03226,50.09439],[20.03271,50.09468],[20.03204,50.09578],[20.03216,50.09606],[20.03213,50.09621],[20.03162,50.09668],[20.03155,50.09711],[20.03127,50.09739],[20.03111,50.09769],[20.03019,50.09775],[20.02982,50.09808],[20.02969,50.09835],[20.02986,50.0988],[20.03052,50.0993],[20.03091,50.09946],[20.03182,50.09941],[20.03213,50.09954],[20.03252,50.09989],[20.03323,50.10096],[20.03346,50.10111],[20.03398,50.10187],[20.03438,50.10192],[20.03454,50.10211],[20.03461,50.10228],[20.03412,50.10284],[20.03381,50.10342],[20.03354,50.10368],[20.03327,50.1043],[20.03669,50.10495],[20.03753,50.10522],[20.03773,50.10555],[20.03753,50.10575],[20.03708,50.10564],[20.0363,50.10595],[20.03556,50.10586],[20.03504,50.10656],[20.03403,50.10874],[20.03315,50.10832],[20.03162,50.10789],[20.03004,50.10588],[20.028,50.10577],[20.02797,50.10544],[20.0277,50.10479],[20.02763,50.10436],[20.02424,50.10394],[20.0221,50.10518],[20.01837,50.10626],[20.01625,50.10662],[20.00455,50.10716],[20.00366,50.1071],[19.99989,50.10724],[19.99649,50.10716],[19.99482,50.10701],[19.99205,50.10653],[19.99075,50.10612],[19.9895,50.10536],[19.98872,50.10513],[19.98829,50.10528],[19.98784,50.10523],[19.98667,50.10478],[19.9909,50.10399],[19.99104,50.10388],[19.99096,50.10358],[19.99105,50.10345],[19.99106,50.10288],[19.99083,50.10251],[19.99101,50.10195],[19.99098,50.10179],[19.99065,50.10142],[19.99064,50.10111],[19.99075,50.10087],[19.9907,50.1006],[19.99043,50.10041],[19.9907,50.09994],[19.99204,50.10027],[19.99248,50.09956],[19.99219,50.09948],[19.99222,50.09943],[19.99052,50.09905],[19.99051,50.09897],[19.98934,50.09844],[19.98864,50.09824],[19.98828,50.09801],[19.98776,50.0979],[19.98806,50.0979],[19.9877,50.09562],[19.98783,50.09512],[19.98803,50.09513],[19.98808,50.09491],[19.98782,50.09487],[19.9875,50.0944],[19.9879,50.09107],[19.98783,50.09106],[19.98785,50.09095],[19.98363,50.09042],[19.98297,50.09028],[19.98285,50.09006],[19.98013,50.08975],[19.9806,50.0882],[19.97851,50.08793]]]}},{"type":"Feature","properties":{"id":16,"nr":"XVI","nazwa":"Bieńczyce"},"geometry":{"type":"Polygon","coordinates":[[[20.00345,50.0881],[20.00374,50.08775],[20.00716,50.08677],[20.01327,50.0857],[20.01301,50.08501],[20.01184,50.08284],[20.01288,50.08262],[20.01377,50.08219],[20.0151,50.0819],[20.01589,50.08161],[20.01571,50.08095],[20.01574,50.07995],[20.01592,50.07981],[20.01524,50.07868],[20.01579,50.07861],[20.01587,50.07893],[20.01616,50.07889],[20.0193,50.07815],[20.01912,50.07768],[20.02093,50.07719],[20.02189,50.0768],[20.02184,50.07668],[20.02571,50.07879],[20.02649,50.07971],[20.02652,50.07983],[20.02641,50.07998],[20.02698,50.08027],[20.02733,50.08019],[20.02809,50.08033],[20.02858,50.07973],[20.03259,50.08183],[20.03839,50.08505],[20.04067,50.08341],[20.04123,50.08323],[20.04263,50.08301],[20.04353,50.08278],[20.04507,50.08219],[20.04966,50.0802],[20.05022,50.07972],[20.05235,50.07642],[20.05649,50.07745],[20.05631,50.07777],[20.05633,50.07824],[20.05596,50.07877],[20.05499,50.07946],[20.05413,50.08034],[20.05324,50.08079],[20.05305,50.08105],[20.05318,50.08138],[20.05342,50.08154],[20.05351,50.08223],[20.05339,50.08254],[20.05343,50.08292],[20.05377,50.08344],[20.05364,50.08365],[20.05289,50.08373],[20.05228,50.08365],[20.05205,50.08353],[20.05061,50.08359],[20.04943,50.08352],[20.04869,50.0838],[20.04831,50.08427],[20.04776,50.08462],[20.04758,50.08493],[20.04759,50.08551],[20.04734,50.08584],[20.04693,50.08667],[20.04692,50.08685],[20.04685,50.08684],[20.04685,50.08745],[20.04724,50.08875],[20.04676,50.08893],[20.0468,50.08898],[20.04498,50.08961],[20.03878,50.08929],[20.03829,50.08933],[20.03266,50.09083],[20.03381,50.09249],[20.03394,50.09295],[20.03366,50.09349],[20.02952,50.09329],[20.02894,50.09337],[20.02789,50.09332],[20.02725,50.09339],[20.02607,50.09361],[20.02301,50.09458],[20.01989,50.09544],[20.01884,50.09554],[20.01746,50.0954],[20.01607,50.095],[20.01399,50.09393],[20.01269,50.09306],[20.00482,50.08854],[20.00345,50.0881]]]}},{"type":"Feature","properties":{"id":17,"nr":"XVII","nazwa":"Wzgórza Krzesławickie"},"geometry":{"type":"Polygon","coordinates":[[[20.02963,50.09335],[20.03366,50.09349],[20.03394,50.09295],[20.03381,50.09249],[20.03266,50.09083],[20.03556,50.09004],[20.03867,50.08929],[20.04498,50.08961],[20.0468,50.08898],[20.04676,50.08893],[20.04724,50.08875],[20.04685,50.08745],[20.04685,50.08684],[20.04692,50.08685],[20.04693,50.08667],[20.04734,50.08584],[20.04759,50.08551],[20.04758,50.08493],[20.04776,50.08462],[20.04831,50.08427],[20.04869,50.0838],[20.04943,50.08352],[20.05061,50.08359],[20.05205,50.08353],[20.05228,50.08365],[20.05289,50.08373],[20.05364,50.08365],[20.05377,50.08344],[20.05343,50.08292],[20.05339,50.08254],[20.05351,50.08223],[20.05342,50.08154],[20.05318,50.08138],[20.05305,50.08105],[20.05324,50.08079],[20.05413,50.08034],[20.05499,50.07946],[20.05596,50.07877],[20.05633,50.07824],[20.05631,50.07777],[20.05649,50.07745],[20.06287,50.07915],[20.06612,50.07958],[20.06626,50.08094],[20.06641,50.08124],[20.06663,50.08139],[20.06922,50.08268],[20.08208,50.08872],[20.08218,50.08869],[20.08331,50.08922],[20.08349,50.08917],[20.0836,50.08935],[20.08375,50.08943],[20.08399,50.08934],[20.08426,50.0895],[20.08493,50.09025],[20.08545,50.09068],[20.08504,50.09172],[20.08965,50.0923],[20.09164,50.09237],[20.09324,50.09228],[20.09549,50.09194],[20.10734,50.08965],[20.10875,50.08934],[20.11007,50.08891],[20.11129,50.08833],[20.11246,50.08794],[20.11454,50.08757],[20.1156,50.08754],[20.11663,50.08767],[20.11632,50.08861],[20.11711,50.08863],[20.11976,50.08904],[20.11976,50.0892],[20.12134,50.08937],[20.12516,50.09005],[20.12646,50.09068],[20.12844,50.091],[20.12824,50.09147],[20.12925,50.09163],[20.12944,50.09115],[20.13117,50.09147],[20.13311,50.09214],[20.13327,50.09226],[20.13333,50.09242],[20.13318,50.09262],[20.13489,50.09162],[20.13518,50.0918],[20.1375,50.0921],[20.13747,50.09186],[20.14568,50.09304],[20.15435,50.0946],[20.1544,50.09536],[20.15471,50.09692],[20.15457,50.09773],[20.15418,50.09885],[20.15415,50.09939],[20.15424,50.09997],[20.15589,50.09998],[20.15591,50.1004],[20.15688,50.1004],[20.15697,50.10096],[20.15605,50.101],[20.15678,50.1033],[20.15659,50.10334],[20.15764,50.10701],[20.15749,50.10705],[20.15811,50.10787],[20.16007,50.11002],[20.16087,50.11066],[20.16049,50.11096],[20.15981,50.1113],[20.15956,50.11154],[20.15925,50.11159],[20.15892,50.11211],[20.15895,50.11225],[20.15881,50.11251],[20.15889,50.11275],[20.15877,50.11359],[20.1588,50.11416],[20.15865,50.1146],[20.15873,50.11466],[20.15856,50.11481],[20.15882,50.115],[20.15857,50.11508],[20.15864,50.11513],[20.15838,50.11533],[20.15849,50.11552],[20.15828,50.11569],[20.15825,50.11593],[20.15758,50.1173],[20.15698,50.1182],[20.15656,50.11848],[20.15583,50.11874],[20.15434,50.11946],[20.15301,50.11882],[20.15246,50.1179],[20.15174,50.11722],[20.14805,50.11494],[20.14688,50.11434],[20.14633,50.11374],[20.14523,50.11237],[20.14466,50.11146],[20.14426,50.11046],[20.14408,50.10989],[20.14414,50.10984],[20.14384,50.10926],[20.14311,50.10647],[20.13794,50.10657],[20.13788,50.10676],[20.13549,50.10688],[20.13171,50.10683],[20.1311,50.10698],[20.12757,50.10737],[20.12587,50.10784],[20.12491,50.10795],[20.12434,50.10823],[20.12276,50.1085],[20.12084,50.10846],[20.12075,50.11061],[20.12032,50.11398],[20.12024,50.11571],[20.12015,50.11621],[20.11998,50.11646],[20.11856,50.11677],[20.11795,50.11628],[20.11726,50.11678],[20.11484,50.11699],[20.1114,50.1169],[20.11135,50.1165],[20.10837,50.11673],[20.09719,50.11906],[20.09625,50.11935],[20.09613,50.11931],[20.09607,50.11895],[20.09584,50.11854],[20.0949,50.11745],[20.09422,50.1163],[20.09412,50.1157],[20.09412,50.11479],[20.09252,50.11442],[20.09023,50.11374],[20.08816,50.11346],[20.08795,50.1114],[20.0875,50.11136],[20.0865,50.11149],[20.08533,50.11153],[20.08436,50.11123],[20.08429,50.11119],[20.08417,50.11026],[20.08372,50.10981],[20.08178,50.10958],[20.08134,50.10933],[20.07827,50.1083],[20.07728,50.10822],[20.07622,50.10918],[20.07549,50.10949],[20.07769,50.11154],[20.07867,50.11203],[20.079,50.1123],[20.07896,50.1124],[20.07828,50.11262],[20.07646,50.11296],[20.07313,50.11272],[20.07026,50.11274],[20.07015,50.11393],[20.06705,50.11402],[20.06383,50.11344],[20.06274,50.11345],[20.06159,50.11353],[20.06178,50.11426],[20.06032,50.11447],[20.05909,50.11453],[20.05848,50.11469],[20.05801,50.11386],[20.05807,50.11374],[20.05643,50.1126],[20.05601,50.11268],[20.05548,50.11259],[20.05462,50.11289],[20.0535,50.11282],[20.05354,50.11276],[20.05308,50.11256],[20.05252,50.11209],[20.05218,50.11157],[20.05209,50.11124],[20.05219,50.11088],[20.05196,50.11084],[20.05187,50.11064],[20.05073,50.11119],[20.05036,50.11094],[20.05106,50.11056],[20.05076,50.11029],[20.05009,50.11025],[20.0498,50.10997],[20.04919,50.10971],[20.04764,50.10965],[20.04695,50.10931],[20.04639,50.10991],[20.04546,50.11116],[20.0447,50.11032],[20.04418,50.11069],[20.04241,50.11249],[20.04206,50.11298],[20.04192,50.11349],[20.03973,50.11332],[20.03769,50.11296],[20.03704,50.1127],[20.037,50.11234],[20.03716,50.11188],[20.03694,50.11133],[20.03671,50.11103],[20.03616,50.11067],[20.036,50.11041],[20.03601,50.11017],[20.03523,50.10999],[20.0358,50.10862],[20.03411,50.10848],[20.03504,50.10656],[20.03556,50.10586],[20.0363,50.10595],[20.03708,50.10564],[20.03753,50.10575],[20.03773,50.10546],[20.03753,50.10522],[20.03669,50.10495],[20.03327,50.1043],[20.03354,50.10368],[20.03381,50.10342],[20.03412,50.10284],[20.03461,50.10228],[20.03454,50.10211],[20.03438,50.10192],[20.03398,50.10187],[20.03346,50.10111],[20.03323,50.10096],[20.03252,50.09989],[20.03213,50.09954],[20.03182,50.09941],[20.03091,50.09946],[20.03052,50.0993],[20.02986,50.0988],[20.02969,50.09835],[20.02982,50.09808],[20.03019,50.09775],[20.03111,50.09769],[20.03127,50.09739],[20.03155,50.09711],[20.03162,50.09668],[20.03213,50.09621],[20.03216,50.09606],[20.03204,50.09578],[20.03271,50.09468],[20.03226,50.09439],[20.03149,50.0942],[20.03122,50.09392],[20.03073,50.09368],[20.02988,50.09357],[20.02963,50.09335]]]}},{"type":"Feature","properties":{"id":18,"nr":"XVIII","nazwa":"Nowa Huta"},"geometry":{"type":"Polygon","coordinates":[[[20.01614,50.07318],[20.01662,50.07279],[20.01659,50.07266],[20.01694,50.0726],[20.01768,50.07256],[20.01781,50.0727],[20.0182,50.07286],[20.01858,50.07294],[20.01936,50.07286],[20.01939,50.07298],[20.02107,50.07294],[20.02922,50.07203],[20.02902,50.07144],[20.02872,50.071],[20.02926,50.0705],[20.02954,50.07011],[20.03089,50.06974],[20.02988,50.06866],[20.0293,50.06819],[20.02908,50.0681],[20.02897,50.06792],[20.02921,50.0672],[20.02918,50.06656],[20.02902,50.06607],[20.02952,50.06597],[20.02993,50.06559],[20.03048,50.06544],[20.03145,50.06477],[20.03252,50.06461],[20.03326,50.06429],[20.0339,50.06426],[20.03515,50.06399],[20.03553,50.06397],[20.03533,50.06436],[20.03707,50.06408],[20.04014,50.06321],[20.04062,50.06317],[20.04033,50.06242],[20.04159,50.06235],[20.04146,50.06155],[20.04213,50.06142],[20.04157,50.06009],[20.04163,50.05998],[20.04111,50.06003],[20.04062,50.05995],[20.04013,50.05966],[20.03841,50.05894],[20.03933,50.05865],[20.0375,50.05769],[20.03729,50.05775],[20.03704,50.05709],[20.03613,50.05624],[20.04038,50.05458],[20.04208,50.05397],[20.04313,50.05372],[20.04754,50.05347],[20.04742,50.05313],[20.04744,50.05284],[20.04798,50.05267],[20.04834,50.05191],[20.0494,50.05204],[20.05057,50.05207],[20.05135,50.052],[20.05512,50.05134],[20.05724,50.05076],[20.05727,50.05082],[20.05995,50.05047],[20.06616,50.0504],[20.06898,50.05054],[20.07291,50.05116],[20.07753,50.05172],[20.08295,50.05272],[20.08666,50.05306],[20.08761,50.05293],[20.0902,50.05217],[20.0908,50.05185],[20.0921,50.051],[20.09345,50.04959],[20.09399,50.04885],[20.09446,50.04761],[20.09441,50.04619],[20.09425,50.04594],[20.09416,50.04532],[20.09438,50.04442],[20.09506,50.04344],[20.09624,50.04258],[20.09808,50.0418],[20.1007,50.04132],[20.10226,50.04119],[20.10437,50.04128],[20.10541,50.04185],[20.10611,50.04201],[20.10686,50.04244],[20.11174,50.04267],[20.1154,50.04263],[20.11805,50.04216],[20.11929,50.04181],[20.12279,50.04031],[20.12506,50.03973],[20.12663,50.0397],[20.12767,50.03982],[20.12887,50.04012],[20.13003,50.04066],[20.13176,50.04188],[20.13227,50.04248],[20.13251,50.04253],[20.13282,50.04281],[20.13383,50.04391],[20.13496,50.04472],[20.13655,50.04541],[20.13807,50.04579],[20.13929,50.04594],[20.1404,50.04595],[20.14228,50.04573],[20.14383,50.0454],[20.15035,50.04366],[20.15351,50.04306],[20.15641,50.04284],[20.15958,50.04283],[20.16239,50.04311],[20.16652,50.04384],[20.17861,50.04689],[20.18386,50.04802],[20.18648,50.0483],[20.18787,50.04835],[20.18931,50.0483],[20.19054,50.04814],[20.19135,50.048],[20.19278,50.04756],[20.19486,50.04668],[20.19731,50.04528],[20.19855,50.04469],[20.20112,50.04386],[20.20375,50.0436],[20.20505,50.04364],[20.20677,50.0439],[20.20782,50.04415],[20.20889,50.04461],[20.20962,50.04511],[20.2103,50.04581],[20.21127,50.04791],[20.21242,50.04967],[20.21282,50.05012],[20.21385,50.05109],[20.21489,50.05192],[20.21612,50.05276],[20.21735,50.05343],[20.21306,50.05688],[20.21227,50.05768],[20.20736,50.06402],[20.20678,50.06471],[20.20633,50.06492],[20.20636,50.06501],[20.20563,50.06517],[20.20516,50.06511],[20.20518,50.06502],[20.20438,50.06482],[20.20391,50.06524],[20.20264,50.06583],[20.20206,50.06595],[20.19972,50.06689],[20.19918,50.067],[20.19896,50.06815],[20.19853,50.06855],[20.19755,50.06915],[20.19649,50.06949],[20.19476,50.06976],[20.19301,50.07047],[20.19275,50.07126],[20.19278,50.07187],[20.19296,50.07228],[20.19396,50.07297],[20.19445,50.07343],[20.19535,50.07372],[20.19523,50.07396],[20.19956,50.07424],[20.19946,50.07487],[20.19709,50.07562],[20.19685,50.07608],[20.19579,50.07624],[20.19561,50.07639],[20.19553,50.07668],[20.19553,50.07814],[20.19459,50.07822],[20.19461,50.07878],[20.19361,50.07911],[20.19335,50.07963],[20.19283,50.07979],[20.1927,50.08044],[20.1924,50.08065],[20.19172,50.08083],[20.1911,50.0815],[20.19042,50.08163],[20.19002,50.08198],[20.18978,50.08235],[20.18977,50.08268],[20.18976,50.08325],[20.19,50.08384],[20.18997,50.08397],[20.18981,50.08429],[20.18932,50.08473],[20.1885,50.0851],[20.18752,50.08523],[20.18631,50.08522],[20.18559,50.08537],[20.18511,50.08564],[20.18494,50.08597],[20.18493,50.08607],[20.18595,50.08622],[20.18919,50.08645],[20.18966,50.08661],[20.19037,50.08701],[20.19233,50.0874],[20.19266,50.08757],[20.19284,50.08782],[20.19174,50.09165],[20.19157,50.0943],[20.1916,50.09475],[20.19184,50.09556],[20.19169,50.09653],[20.1916,50.09654],[20.19162,50.09743],[20.19213,50.0998],[20.19221,50.10057],[20.19276,50.1019],[20.19311,50.10322],[20.1939,50.10435],[20.19506,50.10541],[20.1953,50.10624],[20.19538,50.10697],[20.19575,50.10736],[20.19613,50.10826],[20.19737,50.10833],[20.19788,50.10851],[20.19963,50.10962],[20.20034,50.10991],[20.2009,50.11002],[20.20143,50.11065],[20.20224,50.11112],[20.20333,50.11123],[20.20502,50.11113],[20.20552,50.11207],[20.20573,50.11231],[20.20631,50.11277],[20.20767,50.11414],[20.20822,50.11484],[20.20886,50.11528],[20.20908,50.11557],[20.2073,50.11577],[20.20398,50.11596],[20.20381,50.11638],[20.20386,50.11715],[20.20477,50.11739],[20.20439,50.11762],[20.20407,50.11767],[20.20162,50.11749],[20.20145,50.11779],[20.20149,50.1192],[20.20131,50.12047],[20.20027,50.12048],[20.20029,50.12021],[20.19898,50.12057],[20.19779,50.11964],[20.197,50.11956],[20.19625,50.11968],[20.19593,50.11868],[20.19571,50.11852],[20.19549,50.11849],[20.1946,50.11901],[20.19355,50.11922],[20.19298,50.11967],[20.1925,50.11963],[20.19103,50.11905],[20.19052,50.11865],[20.19024,50.11803],[20.18975,50.1178],[20.18864,50.11806],[20.18857,50.118],[20.18707,50.11828],[20.18686,50.11822],[20.18586,50.11736],[20.18535,50.11676],[20.18245,50.11784],[20.18157,50.11663],[20.17981,50.11723],[20.1796,50.11741],[20.17909,50.11813],[20.17875,50.11835],[20.17618,50.11941],[20.17493,50.11979],[20.17422,50.11902],[20.17338,50.11908],[20.17319,50.11882],[20.17239,50.12039],[20.16581,50.12051],[20.16585,50.12153],[20.16135,50.12147],[20.15906,50.12161],[20.15918,50.12136],[20.15913,50.12114],[20.15922,50.12107],[20.15914,50.12093],[20.1592,50.1208],[20.15873,50.12044],[20.15838,50.12034],[20.15834,50.1202],[20.1579,50.11998],[20.15768,50.11974],[20.15734,50.11968],[20.15714,50.11948],[20.15722,50.11935],[20.15689,50.11924],[20.1569,50.11914],[20.1566,50.11899],[20.15648,50.11904],[20.15638,50.11898],[20.15643,50.11884],[20.15634,50.11857],[20.15695,50.11823],[20.15716,50.11796],[20.15758,50.1173],[20.15825,50.11593],[20.15828,50.11569],[20.15849,50.11552],[20.15838,50.11533],[20.15864,50.11513],[20.15857,50.11508],[20.15882,50.115],[20.15856,50.11481],[20.15873,50.11466],[20.15865,50.1146],[20.1588,50.11416],[20.15877,50.11359],[20.15889,50.11275],[20.15881,50.11251],[20.15897,50.11202],[20.15908,50.11195],[20.15925,50.11159],[20.15956,50.11154],[20.15981,50.1113],[20.16049,50.11096],[20.16087,50.11066],[20.16007,50.11002],[20.15811,50.10787],[20.15749,50.10705],[20.15764,50.10701],[20.15659,50.10334],[20.15678,50.1033],[20.15605,50.101],[20.15697,50.10096],[20.15688,50.1004],[20.15591,50.1004],[20.15589,50.09998],[20.15424,50.09997],[20.15415,50.09939],[20.15418,50.09885],[20.15457,50.09773],[20.15471,50.09692],[20.1544,50.09536],[20.15435,50.0946],[20.14568,50.09304],[20.13747,50.09186],[20.1375,50.0921],[20.13518,50.0918],[20.13489,50.09162],[20.13318,50.09262],[20.13333,50.09242],[20.13327,50.09226],[20.13311,50.09214],[20.13117,50.09147],[20.12944,50.09115],[20.12925,50.09163],[20.12824,50.09147],[20.12844,50.091],[20.12646,50.09068],[20.12516,50.09005],[20.12134,50.08937],[20.11976,50.0892],[20.11976,50.08904],[20.11711,50.08863],[20.11632,50.08861],[20.11663,50.08767],[20.1156,50.08754],[20.11454,50.08757],[20.11246,50.08794],[20.11129,50.08833],[20.11007,50.08891],[20.10875,50.08934],[20.10734,50.08965],[20.09549,50.09194],[20.09324,50.09228],[20.09164,50.09237],[20.08965,50.0923],[20.08504,50.09172],[20.08545,50.09068],[20.08493,50.09025],[20.08426,50.0895],[20.08399,50.08934],[20.08375,50.08943],[20.0836,50.08935],[20.08349,50.08917],[20.08331,50.08922],[20.08218,50.08869],[20.08208,50.08872],[20.06922,50.08268],[20.06663,50.08139],[20.06641,50.08124],[20.06626,50.08094],[20.06612,50.07958],[20.06287,50.07915],[20.05235,50.07642],[20.05022,50.07972],[20.04966,50.0802],[20.04507,50.08219],[20.04353,50.08278],[20.04263,50.08301],[20.04123,50.08323],[20.04067,50.08341],[20.03839,50.08505],[20.03259,50.08183],[20.02858,50.07973],[20.02809,50.08033],[20.02733,50.08019],[20.02698,50.08027],[20.02641,50.07998],[20.02652,50.07983],[20.02649,50.07971],[20.02571,50.07879],[20.02139,50.07644],[20.02136,50.07632],[20.01939,50.07526],[20.01736,50.07426],[20.01629,50.07395],[20.01614,50.07318]]]}}]}